{"type": "FeatureCollection", "features": [{"type": "Feature", "geometry": {"type": "Point", "coordinates": [132.4661757, 34.4021624]}, "properties": {"id": 125321991, "feat_type": "way", "quality_categories": "improper_keys, missing_tags", "issue_ids": "[0, 1]", "osm_url": "https://www.openstreetmap.org/way/125321991", "josm_url": "http://127.0.0.1:8111/load_object?new_layer=false&objects=w125321991", "id_url": "https://www.openstreetmap.org/edit?editor=id&way=125321991#map=20/34.4021624/132.4661757"}}, {"type": "Feature", "geometry": {"type": "Point", "coordinates": [132.4652673, 34.3990635]}, "properties": {"id": 125322034, "feat_type": "way", "quality_categories": "improper_keys, missing_tags", "issue_ids": "[0, 1]", "osm_url": "https://www.openstreetmap.org/way/125322034", "josm_url": "http://127.0.0.1:8111/load_object?new_layer=false&objects=w125322034", "id_url": "https://www.openstreetmap.org/edit?editor=id&way=125322034#map=20/34.3990635/132.4652673"}}, {"type": "Feature", "geometry": {"type": "Point", "coordinates": [132.4471725, 34.3819341]}, "properties": {"id": 128008666, "feat_type": "way", "quality_categories": "improper_keys, missing_tags, older_than_five_years", "issue_ids": "[2, 3, 1]", "osm_url": "https://www.openstreetmap.org/way/128008666", "josm_url": "http://127.0.0.1:8111/load_object?new_layer=false&objects=w128008666", "id_url": "https://www.openstreetmap.org/edit?editor=id&way=128008666#map=20/34.3819341/132.4471725"}}, {"type": "Feature", "geometry": {"type": "Point", "coordinates": [132.4641705, 34.4165625]}, "properties": {"id": 128278053, "feat_type": "way", "quality_categories": "improper_keys, missing_tags, older_than_five_years", "issue_ids": "[0, 4, 1]", "osm_url": "https://www.openstreetmap.org/way/128278053", "josm_url": "http://127.0.0.1:8111/load_object?new_layer=false&objects=w128278053", "id_url": "https://www.openstreetmap.org/edit?editor=id&way=128278053#map=20/34.4165625/132.4641705"}}, {"type": "Feature", "geometry": {"type": "Point", "coordinates": [132.464679, 34.4164478]}, "properties": {"id": 128278072, "feat_type": "way", "quality_categories": "improper_keys, missing_tags, older_than_five_years", "issue_ids": "[0, 4, 1]", "osm_url": "https://www.openstreetmap.org/way/128278072", "josm_url": "http://127.0.0.1:8111/load_object?new_layer=false&objects=w128278072", "id_url": "https://www.openstreetmap.org/edit?editor=id&way=128278072#map=20/34.4164478/132.464679"}}, {"type": "Feature", "geometry": {"type": "Point", "coordinates": [132.4758996, 34.4568773]}, "properties": {"id": 128396452, "feat_type": "way", "quality_categories": "improper_keys, missing_tags, older_than_five_years", "issue_ids": "[0, 5, 1]", "osm_url": "https://www.openstreetmap.org/way/128396452", "josm_url": "http://127.0.0.1:8111/load_object?new_layer=false&objects=w128396452", "id_url": "https://www.openstreetmap.org/edit?editor=id&way=128396452#map=20/34.4568773/132.4758996"}}, {"type": "Feature", "geometry": {"type": "Point", "coordinates": [132.461564, 34.3539086]}, "properties": {"id": 133476694, "feat_type": "way", "quality_categories": "improper_keys, missing_tags, older_than_five_years", "issue_ids": "[0, 6, 1]", "osm_url": "https://www.openstreetmap.org/way/133476694", "josm_url": "http://127.0.0.1:8111/load_object?new_layer=false&objects=w133476694", "id_url": "https://www.openstreetmap.org/edit?editor=id&way=133476694#map=20/34.3539086/132.461564"}}, {"type": "Feature", "geometry": {"type": "Point", "coordinates": [132.4661951, 34.402182]}, "properties": {"id": 166675516, "feat_type": "way", "quality_categories": "improper_keys, missing_tags", "issue_ids": "[0, 1]", "osm_url": "https://www.openstreetmap.org/way/166675516", "josm_url": "http://127.0.0.1:8111/load_object?new_layer=false&objects=w166675516", "id_url": "https://www.openstreetmap.org/edit?editor=id&way=166675516#map=20/34.402182/132.4661951"}}, {"type": "Feature", "geometry": {"type": "Point", "coordinates": [132.4500191, 34.4051214]}, "properties": {"id": 172739635, "feat_type": "way", "quality_categories": "improper_keys, missing_tags, older_than_five_years", "issue_ids": "[0, 7, 1]", "osm_url": "https://www.openstreetmap.org/way/172739635", "josm_url": "http://127.0.0.1:8111/load_object?new_layer=false&objects=w172739635", "id_url": "https://www.openstreetmap.org/edit?editor=id&way=172739635#map=20/34.4051214/132.4500191"}}, {"type": "Feature", "geometry": {"type": "Point", "coordinates": [132.4423724, 34.3982632]}, "properties": {"id": 192579900, "feat_type": "way", "quality_categories": "improper_keys, missing_tags, older_than_five_years", "issue_ids": "[0, 8, 1]", "osm_url": "https://www.openstreetmap.org/way/192579900", "josm_url": "http://127.0.0.1:8111/load_object?new_layer=false&objects=w192579900", "id_url": "https://www.openstreetmap.org/edit?editor=id&way=192579900#map=20/34.3982632/132.4423724"}}, {"type": "Feature", "geometry": {"type": "Point", "coordinates": [132.4592709, 34.4699316]}, "properties": {"id": 796594219, "feat_type": "way", "quality_categories": "improper_keys, missing_tags", "issue_ids": "[9, 1]", "osm_url": "https://www.openstreetmap.org/way/796594219", "josm_url": "http://127.0.0.1:8111/load_object?new_layer=false&objects=w796594219", "id_url": "https://www.openstreetmap.org/edit?editor=id&way=796594219#map=20/34.4699316/132.4592709"}}, {"type": "Feature", "geometry": {"type": "Point", "coordinates": [132.4636243, 34.3982443]}, "properties": {"id": 1075461224, "feat_type": "way", "quality_categories": "improper_keys, missing_tags", "issue_ids": "[0, 1]", "osm_url": "https://www.openstreetmap.org/way/1075461224", "josm_url": "http://127.0.0.1:8111/load_object?new_layer=false&objects=w1075461224", "id_url": "https://www.openstreetmap.org/edit?editor=id&way=1075461224#map=20/34.3982443/132.4636243"}}]}