{"type": "FeatureCollection", "features": [{"type": "Feature", "geometry": {"type": "Point", "coordinates": [132.4814743489171, 34.3940448]}, "properties": {"id": 1341027359, "feat_type": "way", "quality_categories": "improper_geometries, missing_tags", "issue_ids": "[0, 1]", "osm_url": "https://www.openstreetmap.org/way/1341027359", "josm_url": "http://127.0.0.1:8111/load_object?new_layer=false&objects=w1341027359", "id_url": "https://www.openstreetmap.org/edit?editor=id&way=1341027359#map=20/34.3940448/132.4814743489171"}}]}