{"type": "FeatureCollection", "features": [{"type": "Feature", "geometry": {"type": "Point", "coordinates": [132.4572521, 34.3895449]}, "properties": {"id": 1372097435, "feat_type": "way", "quality_categories": "keys_without_wiki", "issue_ids": "[0]", "osm_url": "https://www.openstreetmap.org/way/1372097435", "josm_url": "http://127.0.0.1:8111/load_object?new_layer=false&objects=w1372097435", "id_url": "https://www.openstreetmap.org/edit?editor=id&way=1372097435#map=20/34.3895449/132.4572521"}}, {"type": "Feature", "geometry": {"type": "Point", "coordinates": [132.4561538, 34.3899502]}, "properties": {"id": 1372097436, "feat_type": "way", "quality_categories": "keys_without_wiki, missing_tags", "issue_ids": "[0, 1]", "osm_url": "https://www.openstreetmap.org/way/1372097436", "josm_url": "http://127.0.0.1:8111/load_object?new_layer=false&objects=w1372097436", "id_url": "https://www.openstreetmap.org/edit?editor=id&way=1372097436#map=20/34.3899502/132.4561538"}}]}