{"type": "FeatureCollection", "features": [{"type": "Feature", "geometry": {"type": "Point", "coordinates": [132.4568855, 34.3999718]}, "properties": {"id": 99288354, "feat_type": "way", "quality_categories": "missing_tags, uncanny_keys", "issue_ids": "[0, 1]", "osm_url": "https://www.openstreetmap.org/way/99288354", "josm_url": "http://127.0.0.1:8111/load_object?new_layer=false&objects=w99288354", "id_url": "https://www.openstreetmap.org/edit?editor=id&way=99288354#map=20/34.3999718/132.4568855"}}, {"type": "Feature", "geometry": {"type": "Point", "coordinates": [132.4623339, 34.3882296]}, "properties": {"id": 123685298, "feat_type": "way", "quality_categories": "uncanny_keys", "issue_ids": "[2]", "osm_url": "https://www.openstreetmap.org/way/123685298", "josm_url": "http://127.0.0.1:8111/load_object?new_layer=false&objects=w123685298", "id_url": "https://www.openstreetmap.org/edit?editor=id&way=123685298#map=20/34.3882296/132.4623339"}}, {"type": "Feature", "geometry": {"type": "Point", "coordinates": [132.4642027, 34.3877599]}, "properties": {"id": 123685303, "feat_type": "way", "quality_categories": "uncanny_keys", "issue_ids": "[2]", "osm_url": "https://www.openstreetmap.org/way/123685303", "josm_url": "http://127.0.0.1:8111/load_object?new_layer=false&objects=w123685303", "id_url": "https://www.openstreetmap.org/edit?editor=id&way=123685303#map=20/34.3877599/132.4642027"}}, {"type": "Feature", "geometry": {"type": "Point", "coordinates": [132.4648175, 34.3876831]}, "properties": {"id": 123685305, "feat_type": "way", "quality_categories": "missing_tags, older_than_five_years, uncanny_keys", "issue_ids": "[2, 3, 1]", "osm_url": "https://www.openstreetmap.org/way/123685305", "josm_url": "http://127.0.0.1:8111/load_object?new_layer=false&objects=w123685305", "id_url": "https://www.openstreetmap.org/edit?editor=id&way=123685305#map=20/34.3876831/132.4648175"}}, {"type": "Feature", "geometry": {"type": "Point", "coordinates": [132.4630059, 34.3880276]}, "properties": {"id": 124723409, "feat_type": "way", "quality_categories": "uncanny_keys", "issue_ids": "[2]", "osm_url": "https://www.openstreetmap.org/way/124723409", "josm_url": "http://127.0.0.1:8111/load_object?new_layer=false&objects=w124723409", "id_url": "https://www.openstreetmap.org/edit?editor=id&way=124723409#map=20/34.3880276/132.4630059"}}, {"type": "Feature", "geometry": {"type": "Point", "coordinates": [132.4648216, 34.387583]}, "properties": {"id": 124723418, "feat_type": "way", "quality_categories": "missing_tags, older_than_five_years, uncanny_keys", "issue_ids": "[2, 3, 1]", "osm_url": "https://www.openstreetmap.org/way/124723418", "josm_url": "http://127.0.0.1:8111/load_object?new_layer=false&objects=w124723418", "id_url": "https://www.openstreetmap.org/edit?editor=id&way=124723418#map=20/34.387583/132.4648216"}}, {"type": "Feature", "geometry": {"type": "Point", "coordinates": [132.4628754, 34.3880844]}, "properties": {"id": 124723425, "feat_type": "way", "quality_categories": "uncanny_keys", "issue_ids": "[2]", "osm_url": "https://www.openstreetmap.org/way/124723425", "josm_url": "http://127.0.0.1:8111/load_object?new_layer=false&objects=w124723425", "id_url": "https://www.openstreetmap.org/edit?editor=id&way=124723425#map=20/34.3880844/132.4628754"}}, {"type": "Feature", "geometry": {"type": "Point", "coordinates": [132.4654086, 34.3874416]}, "properties": {"id": 124723427, "feat_type": "way", "quality_categories": "missing_tags, older_than_five_years, uncanny_keys", "issue_ids": "[2, 3, 1]", "osm_url": "https://www.openstreetmap.org/way/124723427", "josm_url": "http://127.0.0.1:8111/load_object?new_layer=false&objects=w124723427", "id_url": "https://www.openstreetmap.org/edit?editor=id&way=124723427#map=20/34.3874416/132.4654086"}}, {"type": "Feature", "geometry": {"type": "Point", "coordinates": [132.4643668, 34.3877173]}, "properties": {"id": 124723429, "feat_type": "way", "quality_categories": "uncanny_keys", "issue_ids": "[2]", "osm_url": "https://www.openstreetmap.org/way/124723429", "josm_url": "http://127.0.0.1:8111/load_object?new_layer=false&objects=w124723429", "id_url": "https://www.openstreetmap.org/edit?editor=id&way=124723429#map=20/34.3877173/132.4643668"}}, {"type": "Feature", "geometry": {"type": "Point", "coordinates": [132.4665192, 34.3871092]}, "properties": {"id": 124723461, "feat_type": "way", "quality_categories": "uncanny_keys", "issue_ids": "[2]", "osm_url": "https://www.openstreetmap.org/way/124723461", "josm_url": "http://127.0.0.1:8111/load_object?new_layer=false&objects=w124723461", "id_url": "https://www.openstreetmap.org/edit?editor=id&way=124723461#map=20/34.3871092/132.4665192"}}, {"type": "Feature", "geometry": {"type": "Point", "coordinates": [132.4634683, 34.3878641]}, "properties": {"id": 124723488, "feat_type": "way", "quality_categories": "missing_tags, older_than_five_years, uncanny_keys", "issue_ids": "[2, 4, 1]", "osm_url": "https://www.openstreetmap.org/way/124723488", "josm_url": "http://127.0.0.1:8111/load_object?new_layer=false&objects=w124723488", "id_url": "https://www.openstreetmap.org/edit?editor=id&way=124723488#map=20/34.3878641/132.4634683"}}, {"type": "Feature", "geometry": {"type": "Point", "coordinates": [132.4609864, 34.3885616]}, "properties": {"id": 124862242, "feat_type": "way", "quality_categories": "uncanny_keys", "issue_ids": "[2]", "osm_url": "https://www.openstreetmap.org/way/124862242", "josm_url": "http://127.0.0.1:8111/load_object?new_layer=false&objects=w124862242", "id_url": "https://www.openstreetmap.org/edit?editor=id&way=124862242#map=20/34.3885616/132.4609864"}}, {"type": "Feature", "geometry": {"type": "Point", "coordinates": [132.4533341, 34.3940702]}, "properties": {"id": 125128097, "feat_type": "way", "quality_categories": "uncanny_keys", "issue_ids": "[5]", "osm_url": "https://www.openstreetmap.org/way/125128097", "josm_url": "http://127.0.0.1:8111/load_object?new_layer=false&objects=w125128097", "id_url": "https://www.openstreetmap.org/edit?editor=id&way=125128097#map=20/34.3940702/132.4533341"}}, {"type": "Feature", "geometry": {"type": "Point", "coordinates": [132.4565919, 34.4000457]}, "properties": {"id": 125128189, "feat_type": "way", "quality_categories": "missing_tags, uncanny_keys", "issue_ids": "[0, 1]", "osm_url": "https://www.openstreetmap.org/way/125128189", "josm_url": "http://127.0.0.1:8111/load_object?new_layer=false&objects=w125128189", "id_url": "https://www.openstreetmap.org/edit?editor=id&way=125128189#map=20/34.4000457/132.4565919"}}, {"type": "Feature", "geometry": {"type": "Point", "coordinates": [132.4513401, 34.38905]}, "properties": {"id": 125746329, "feat_type": "way", "quality_categories": "missing_tags, older_than_five_years, uncanny_keys", "issue_ids": "[6, 7, 1]", "osm_url": "https://www.openstreetmap.org/way/125746329", "josm_url": "http://127.0.0.1:8111/load_object?new_layer=false&objects=w125746329", "id_url": "https://www.openstreetmap.org/edit?editor=id&way=125746329#map=20/34.38905/132.4513401"}}, {"type": "Feature", "geometry": {"type": "Point", "coordinates": [132.4539891, 34.3941207]}, "properties": {"id": 125746365, "feat_type": "way", "quality_categories": "uncanny_keys", "issue_ids": "[8]", "osm_url": "https://www.openstreetmap.org/way/125746365", "josm_url": "http://127.0.0.1:8111/load_object?new_layer=false&objects=w125746365", "id_url": "https://www.openstreetmap.org/edit?editor=id&way=125746365#map=20/34.3941207/132.4539891"}}, {"type": "Feature", "geometry": {"type": "Point", "coordinates": [132.4547747, 34.3922282]}, "properties": {"id": 125746437, "feat_type": "way", "quality_categories": "uncanny_keys", "issue_ids": "[9]", "osm_url": "https://www.openstreetmap.org/way/125746437", "josm_url": "http://127.0.0.1:8111/load_object?new_layer=false&objects=w125746437", "id_url": "https://www.openstreetmap.org/edit?editor=id&way=125746437#map=20/34.3922282/132.4547747"}}, {"type": "Feature", "geometry": {"type": "Point", "coordinates": [132.4495515, 34.3879065]}, "properties": {"id": 125746595, "feat_type": "way", "quality_categories": "missing_tags, uncanny_keys", "issue_ids": "[6, 1]", "osm_url": "https://www.openstreetmap.org/way/125746595", "josm_url": "http://127.0.0.1:8111/load_object?new_layer=false&objects=w125746595", "id_url": "https://www.openstreetmap.org/edit?editor=id&way=125746595#map=20/34.3879065/132.4495515"}}, {"type": "Feature", "geometry": {"type": "Point", "coordinates": [132.4665884, 34.3870911]}, "properties": {"id": 126073495, "feat_type": "way", "quality_categories": "uncanny_keys", "issue_ids": "[2]", "osm_url": "https://www.openstreetmap.org/way/126073495", "josm_url": "http://127.0.0.1:8111/load_object?new_layer=false&objects=w126073495", "id_url": "https://www.openstreetmap.org/edit?editor=id&way=126073495#map=20/34.3870911/132.4665884"}}, {"type": "Feature", "geometry": {"type": "Point", "coordinates": [132.4700867, 34.385864]}, "properties": {"id": 126073607, "feat_type": "way", "quality_categories": "missing_tags, older_than_five_years, uncanny_keys", "issue_ids": "[2, 10, 1]", "osm_url": "https://www.openstreetmap.org/way/126073607", "josm_url": "http://127.0.0.1:8111/load_object?new_layer=false&objects=w126073607", "id_url": "https://www.openstreetmap.org/edit?editor=id&way=126073607#map=20/34.385864/132.4700867"}}, {"type": "Feature", "geometry": {"type": "Point", "coordinates": [132.4687305, 34.3864776]}, "properties": {"id": 126073743, "feat_type": "way", "quality_categories": "uncanny_keys", "issue_ids": "[2]", "osm_url": "https://www.openstreetmap.org/way/126073743", "josm_url": "http://127.0.0.1:8111/load_object?new_layer=false&objects=w126073743", "id_url": "https://www.openstreetmap.org/edit?editor=id&way=126073743#map=20/34.3864776/132.4687305"}}, {"type": "Feature", "geometry": {"type": "Point", "coordinates": [132.4680974, 34.386667]}, "properties": {"id": 126073755, "feat_type": "way", "quality_categories": "uncanny_keys", "issue_ids": "[2]", "osm_url": "https://www.openstreetmap.org/way/126073755", "josm_url": "http://127.0.0.1:8111/load_object?new_layer=false&objects=w126073755", "id_url": "https://www.openstreetmap.org/edit?editor=id&way=126073755#map=20/34.386667/132.4680974"}}, {"type": "Feature", "geometry": {"type": "Point", "coordinates": [132.4672441, 34.3868919]}, "properties": {"id": 126073757, "feat_type": "way", "quality_categories": "missing_tags, older_than_five_years, uncanny_keys", "issue_ids": "[2, 4, 1]", "osm_url": "https://www.openstreetmap.org/way/126073757", "josm_url": "http://127.0.0.1:8111/load_object?new_layer=false&objects=w126073757", "id_url": "https://www.openstreetmap.org/edit?editor=id&way=126073757#map=20/34.3868919/132.4672441"}}, {"type": "Feature", "geometry": {"type": "Point", "coordinates": [132.4803966, 34.3780506]}, "properties": {"id": 139488085, "feat_type": "way", "quality_categories": "missing_tags, older_than_five_years, uncanny_keys", "issue_ids": "[11, 12, 1]", "osm_url": "https://www.openstreetmap.org/way/139488085", "josm_url": "http://127.0.0.1:8111/load_object?new_layer=false&objects=w139488085", "id_url": "https://www.openstreetmap.org/edit?editor=id&way=139488085#map=20/34.3780506/132.4803966"}}, {"type": "Feature", "geometry": {"type": "Point", "coordinates": [132.4479184, 34.3883549]}, "properties": {"id": 168860048, "feat_type": "way", "quality_categories": "missing_tags, uncanny_keys", "issue_ids": "[6, 1]", "osm_url": "https://www.openstreetmap.org/way/168860048", "josm_url": "http://127.0.0.1:8111/load_object?new_layer=false&objects=w168860048", "id_url": "https://www.openstreetmap.org/edit?editor=id&way=168860048#map=20/34.3883549/132.4479184"}}, {"type": "Feature", "geometry": {"type": "Point", "coordinates": [132.386535, 34.3783043]}, "properties": {"id": 233209086, "feat_type": "way", "quality_categories": "missing_tags, uncanny_keys", "issue_ids": "[13, 1]", "osm_url": "https://www.openstreetmap.org/way/233209086", "josm_url": "http://127.0.0.1:8111/load_object?new_layer=false&objects=w233209086", "id_url": "https://www.openstreetmap.org/edit?editor=id&way=233209086#map=20/34.3783043/132.386535"}}, {"type": "Feature", "geometry": {"type": "Point", "coordinates": [132.4952026, 34.392058]}, "properties": {"id": 429457952, "feat_type": "way", "quality_categories": "missing_tags, uncanny_keys", "issue_ids": "[14, 1]", "osm_url": "https://www.openstreetmap.org/way/429457952", "josm_url": "http://127.0.0.1:8111/load_object?new_layer=false&objects=w429457952", "id_url": "https://www.openstreetmap.org/edit?editor=id&way=429457952#map=20/34.392058/132.4952026"}}, {"type": "Feature", "geometry": {"type": "Point", "coordinates": [132.4950467, 34.3922138]}, "properties": {"id": 429457958, "feat_type": "way", "quality_categories": "missing_tags, uncanny_keys", "issue_ids": "[14, 1]", "osm_url": "https://www.openstreetmap.org/way/429457958", "josm_url": "http://127.0.0.1:8111/load_object?new_layer=false&objects=w429457958", "id_url": "https://www.openstreetmap.org/edit?editor=id&way=429457958#map=20/34.3922138/132.4950467"}}, {"type": "Feature", "geometry": {"type": "Point", "coordinates": [132.4941288, 34.3926299]}, "properties": {"id": 429457960, "feat_type": "way", "quality_categories": "missing_tags, uncanny_keys", "issue_ids": "[14, 1]", "osm_url": "https://www.openstreetmap.org/way/429457960", "josm_url": "http://127.0.0.1:8111/load_object?new_layer=false&objects=w429457960", "id_url": "https://www.openstreetmap.org/edit?editor=id&way=429457960#map=20/34.3926299/132.4941288"}}, {"type": "Feature", "geometry": {"type": "Point", "coordinates": [132.4643774, 34.3876995]}, "properties": {"id": 442982351, "feat_type": "way", "quality_categories": "uncanny_keys", "issue_ids": "[2]", "osm_url": "https://www.openstreetmap.org/way/442982351", "josm_url": "http://127.0.0.1:8111/load_object?new_layer=false&objects=w442982351", "id_url": "https://www.openstreetmap.org/edit?editor=id&way=442982351#map=20/34.3876995/132.4643774"}}, {"type": "Feature", "geometry": {"type": "Point", "coordinates": [132.4649128, 34.3875702]}, "properties": {"id": 442982353, "feat_type": "way", "quality_categories": "missing_tags, older_than_five_years, uncanny_keys", "issue_ids": "[2, 3, 1]", "osm_url": "https://www.openstreetmap.org/way/442982353", "josm_url": "http://127.0.0.1:8111/load_object?new_layer=false&objects=w442982353", "id_url": "https://www.openstreetmap.org/edit?editor=id&way=442982353#map=20/34.3875702/132.4649128"}}, {"type": "Feature", "geometry": {"type": "Point", "coordinates": [132.4654708, 34.3874209]}, "properties": {"id": 442982354, "feat_type": "way", "quality_categories": "missing_tags, older_than_five_years, uncanny_keys", "issue_ids": "[2, 3, 1]", "osm_url": "https://www.openstreetmap.org/way/442982354", "josm_url": "http://127.0.0.1:8111/load_object?new_layer=false&objects=w442982354", "id_url": "https://www.openstreetmap.org/edit?editor=id&way=442982354#map=20/34.3874209/132.4654708"}}, {"type": "Feature", "geometry": {"type": "Point", "coordinates": [132.4542448, 34.3902931]}, "properties": {"id": 451806159, "feat_type": "way", "quality_categories": "missing_tags, older_than_five_years, uncanny_keys", "issue_ids": "[9, 15, 1]", "osm_url": "https://www.openstreetmap.org/way/451806159", "josm_url": "http://127.0.0.1:8111/load_object?new_layer=false&objects=w451806159", "id_url": "https://www.openstreetmap.org/edit?editor=id&way=451806159#map=20/34.3902931/132.4542448"}}]}