{"type": "FeatureCollection", "features": [{"type": "Feature", "geometry": {"type": "Point", "coordinates": [132.4532323, 34.3905454]}, "properties": {"id": 125746578, "feat_type": "way", "quality_categories": "missing_tags, wrong_mispelled_or_unlisted_values", "issue_ids": "[0, 1]", "osm_url": "https://www.openstreetmap.org/way/125746578", "josm_url": "http://127.0.0.1:8111/load_object?new_layer=false&objects=w125746578", "id_url": "https://www.openstreetmap.org/edit?editor=id&way=125746578#map=20/34.3905454/132.4532323"}}, {"type": "Feature", "geometry": {"type": "Point", "coordinates": [132.4542058, 34.3902915]}, "properties": {"id": 768005516, "feat_type": "way", "quality_categories": "missing_tags, wrong_mispelled_or_unlisted_values", "issue_ids": "[0, 1]", "osm_url": "https://www.openstreetmap.org/way/768005516", "josm_url": "http://127.0.0.1:8111/load_object?new_layer=false&objects=w768005516", "id_url": "https://www.openstreetmap.org/edit?editor=id&way=768005516#map=20/34.3902915/132.4542058"}}]}