{"type": "FeatureCollection", "features": [{"type": "Feature", "geometry": {"type": "Point", "coordinates": [132.4774798, 34.4542017]}, "properties": {"id": 128396436, "feat_type": "way", "quality_categories": "disjointed_geometries, missing_tags", "issue_ids": "[0, 1]", "osm_url": "https://www.openstreetmap.org/way/128396436", "josm_url": "http://127.0.0.1:8111/load_object?new_layer=false&objects=w128396436", "id_url": "https://www.openstreetmap.org/edit?editor=id&way=128396436#map=20/34.4542017/132.4774798"}}, {"type": "Feature", "geometry": {"type": "Point", "coordinates": [132.4726599, 34.4081737]}, "properties": {"id": 128600761, "feat_type": "way", "quality_categories": "disjointed_geometries, missing_tags", "issue_ids": "[0, 1]", "osm_url": "https://www.openstreetmap.org/way/128600761", "josm_url": "http://127.0.0.1:8111/load_object?new_layer=false&objects=w128600761", "id_url": "https://www.openstreetmap.org/edit?editor=id&way=128600761#map=20/34.4081737/132.4726599"}}, {"type": "Feature", "geometry": {"type": "Point", "coordinates": [132.4725875, 34.4082977]}, "properties": {"id": 128600779, "feat_type": "way", "quality_categories": "disjointed_geometries, missing_tags", "issue_ids": "[0, 1]", "osm_url": "https://www.openstreetmap.org/way/128600779", "josm_url": "http://127.0.0.1:8111/load_object?new_layer=false&objects=w128600779", "id_url": "https://www.openstreetmap.org/edit?editor=id&way=128600779#map=20/34.4082977/132.4725875"}}, {"type": "Feature", "geometry": {"type": "Point", "coordinates": [132.4071115, 34.4868389]}, "properties": {"id": 169518416, "feat_type": "way", "quality_categories": "disjointed_geometries, missing_tags", "issue_ids": "[0, 1]", "osm_url": "https://www.openstreetmap.org/way/169518416", "josm_url": "http://127.0.0.1:8111/load_object?new_layer=false&objects=w169518416", "id_url": "https://www.openstreetmap.org/edit?editor=id&way=169518416#map=20/34.4868389/132.4071115"}}, {"type": "Feature", "geometry": {"type": "Point", "coordinates": [132.4071367, 34.4871416]}, "properties": {"id": 169518424, "feat_type": "way", "quality_categories": "disjointed_geometries, missing_tags", "issue_ids": "[0, 1]", "osm_url": "https://www.openstreetmap.org/way/169518424", "josm_url": "http://127.0.0.1:8111/load_object?new_layer=false&objects=w169518424", "id_url": "https://www.openstreetmap.org/edit?editor=id&way=169518424#map=20/34.4871416/132.4071367"}}, {"type": "Feature", "geometry": {"type": "Point", "coordinates": [132.4070509, 34.4855478]}, "properties": {"id": 169518448, "feat_type": "way", "quality_categories": "disjointed_geometries, missing_tags", "issue_ids": "[0, 1]", "osm_url": "https://www.openstreetmap.org/way/169518448", "josm_url": "http://127.0.0.1:8111/load_object?new_layer=false&objects=w169518448", "id_url": "https://www.openstreetmap.org/edit?editor=id&way=169518448#map=20/34.4855478/132.4070509"}}, {"type": "Feature", "geometry": {"type": "Point", "coordinates": [132.5881561, 34.4327356]}, "properties": {"id": 178984405, "feat_type": "way", "quality_categories": "disjointed_geometries, missing_tags", "issue_ids": "[0, 1]", "osm_url": "https://www.openstreetmap.org/way/178984405", "josm_url": "http://127.0.0.1:8111/load_object?new_layer=false&objects=w178984405", "id_url": "https://www.openstreetmap.org/edit?editor=id&way=178984405#map=20/34.4327356/132.5881561"}}, {"type": "Feature", "geometry": {"type": "Point", "coordinates": [132.4553673, 34.4224594]}, "properties": {"id": 241887378, "feat_type": "way", "quality_categories": "disjointed_geometries, missing_tags", "issue_ids": "[0, 1]", "osm_url": "https://www.openstreetmap.org/way/241887378", "josm_url": "http://127.0.0.1:8111/load_object?new_layer=false&objects=w241887378", "id_url": "https://www.openstreetmap.org/edit?editor=id&way=241887378#map=20/34.4224594/132.4553673"}}, {"type": "Feature", "geometry": {"type": "Point", "coordinates": [132.4757353, 34.4479899]}, "properties": {"id": 258278012, "feat_type": "way", "quality_categories": "disjointed_geometries, missing_tags", "issue_ids": "[0, 1]", "osm_url": "https://www.openstreetmap.org/way/258278012", "josm_url": "http://127.0.0.1:8111/load_object?new_layer=false&objects=w258278012", "id_url": "https://www.openstreetmap.org/edit?editor=id&way=258278012#map=20/34.4479899/132.4757353"}}, {"type": "Feature", "geometry": {"type": "Point", "coordinates": [132.4312389, 34.3993129]}, "properties": {"id": 442927670, "feat_type": "way", "quality_categories": "disjointed_geometries, missing_tags, replaceable_values", "issue_ids": "[2, 0, 1]", "osm_url": "https://www.openstreetmap.org/way/442927670", "josm_url": "http://127.0.0.1:8111/load_object?new_layer=false&objects=w442927670", "id_url": "https://www.openstreetmap.org/edit?editor=id&way=442927670#map=20/34.3993129/132.4312389"}}, {"type": "Feature", "geometry": {"type": "Point", "coordinates": [132.4289221, 34.4712633]}, "properties": {"id": 776031150, "feat_type": "way", "quality_categories": "disjointed_geometries, missing_tags, replaceable_values", "issue_ids": "[2, 0, 1]", "osm_url": "https://www.openstreetmap.org/way/776031150", "josm_url": "http://127.0.0.1:8111/load_object?new_layer=false&objects=w776031150", "id_url": "https://www.openstreetmap.org/edit?editor=id&way=776031150#map=20/34.4712633/132.4289221"}}, {"type": "Feature", "geometry": {"type": "Point", "coordinates": [132.4723418, 34.3829822]}, "properties": {"id": 1002192671, "feat_type": "way", "quality_categories": "disjointed_geometries, replaceable_values", "issue_ids": "[2, 1]", "osm_url": "https://www.openstreetmap.org/way/1002192671", "josm_url": "http://127.0.0.1:8111/load_object?new_layer=false&objects=w1002192671", "id_url": "https://www.openstreetmap.org/edit?editor=id&way=1002192671#map=20/34.3829822/132.4723418"}}, {"type": "Feature", "geometry": {"type": "Point", "coordinates": [132.5321409, 34.3520102]}, "properties": {"id": 1173041777, "feat_type": "way", "quality_categories": "disjointed_geometries, missing_tags", "issue_ids": "[0, 1]", "osm_url": "https://www.openstreetmap.org/way/1173041777", "josm_url": "http://127.0.0.1:8111/load_object?new_layer=false&objects=w1173041777", "id_url": "https://www.openstreetmap.org/edit?editor=id&way=1173041777#map=20/34.3520102/132.5321409"}}, {"type": "Feature", "geometry": {"type": "Point", "coordinates": [132.3512603, 34.3583057]}, "properties": {"id": 1206521591, "feat_type": "way", "quality_categories": "disjointed_geometries, missing_tags", "issue_ids": "[0, 1]", "osm_url": "https://www.openstreetmap.org/way/1206521591", "josm_url": "http://127.0.0.1:8111/load_object?new_layer=false&objects=w1206521591", "id_url": "https://www.openstreetmap.org/edit?editor=id&way=1206521591#map=20/34.3583057/132.3512603"}}, {"type": "Feature", "geometry": {"type": "Point", "coordinates": [132.3518665, 34.3586812]}, "properties": {"id": 1206521593, "feat_type": "way", "quality_categories": "disjointed_geometries, missing_tags", "issue_ids": "[0, 1]", "osm_url": "https://www.openstreetmap.org/way/1206521593", "josm_url": "http://127.0.0.1:8111/load_object?new_layer=false&objects=w1206521593", "id_url": "https://www.openstreetmap.org/edit?editor=id&way=1206521593#map=20/34.3586812/132.3518665"}}, {"type": "Feature", "geometry": {"type": "Point", "coordinates": [132.3984491, 34.3779073]}, "properties": {"id": 1226981033, "feat_type": "way", "quality_categories": "disjointed_geometries, missing_tags", "issue_ids": "[0, 1]", "osm_url": "https://www.openstreetmap.org/way/1226981033", "josm_url": "http://127.0.0.1:8111/load_object?new_layer=false&objects=w1226981033", "id_url": "https://www.openstreetmap.org/edit?editor=id&way=1226981033#map=20/34.3779073/132.3984491"}}, {"type": "Feature", "geometry": {"type": "Point", "coordinates": [132.4125281, 34.4106436]}, "properties": {"id": 1259132753, "feat_type": "way", "quality_categories": "disjointed_geometries, missing_tags", "issue_ids": "[0, 1]", "osm_url": "https://www.openstreetmap.org/way/1259132753", "josm_url": "http://127.0.0.1:8111/load_object?new_layer=false&objects=w1259132753", "id_url": "https://www.openstreetmap.org/edit?editor=id&way=1259132753#map=20/34.4106436/132.4125281"}}, {"type": "Feature", "geometry": {"type": "Point", "coordinates": [132.452979, 34.401937]}, "properties": {"id": 1333263229, "feat_type": "way", "quality_categories": "disjointed_geometries, missing_tags", "issue_ids": "[0, 1]", "osm_url": "https://www.openstreetmap.org/way/1333263229", "josm_url": "http://127.0.0.1:8111/load_object?new_layer=false&objects=w1333263229", "id_url": "https://www.openstreetmap.org/edit?editor=id&way=1333263229#map=20/34.401937/132.452979"}}, {"type": "Feature", "geometry": {"type": "Point", "coordinates": [132.4527884, 34.4019866]}, "properties": {"id": 1333263231, "feat_type": "way", "quality_categories": "disjointed_geometries, missing_tags", "issue_ids": "[0, 1]", "osm_url": "https://www.openstreetmap.org/way/1333263231", "josm_url": "http://127.0.0.1:8111/load_object?new_layer=false&objects=w1333263231", "id_url": "https://www.openstreetmap.org/edit?editor=id&way=1333263231#map=20/34.4019866/132.4527884"}}, {"type": "Feature", "geometry": {"type": "Point", "coordinates": [132.452593, 34.4020474]}, "properties": {"id": 1333263234, "feat_type": "way", "quality_categories": "disjointed_geometries, missing_tags", "issue_ids": "[0, 1]", "osm_url": "https://www.openstreetmap.org/way/1333263234", "josm_url": "http://127.0.0.1:8111/load_object?new_layer=false&objects=w1333263234", "id_url": "https://www.openstreetmap.org/edit?editor=id&way=1333263234#map=20/34.4020474/132.452593"}}, {"type": "Feature", "geometry": {"type": "Point", "coordinates": [132.4800338, 34.3752157]}, "properties": {"id": 1352383495, "feat_type": "way", "quality_categories": "disjointed_geometries, missing_tags", "issue_ids": "[0, 1]", "osm_url": "https://www.openstreetmap.org/way/1352383495", "josm_url": "http://127.0.0.1:8111/load_object?new_layer=false&objects=w1352383495", "id_url": "https://www.openstreetmap.org/edit?editor=id&way=1352383495#map=20/34.3752157/132.4800338"}}, {"type": "Feature", "geometry": {"type": "Point", "coordinates": [132.4996362, 34.4090145]}, "properties": {"id": 1361891681, "feat_type": "way", "quality_categories": "disjointed_geometries, missing_tags", "issue_ids": "[0, 1]", "osm_url": "https://www.openstreetmap.org/way/1361891681", "josm_url": "http://127.0.0.1:8111/load_object?new_layer=false&objects=w1361891681", "id_url": "https://www.openstreetmap.org/edit?editor=id&way=1361891681#map=20/34.4090145/132.4996362"}}, {"type": "Feature", "geometry": {"type": "Point", "coordinates": [132.4988716, 34.4150206]}, "properties": {"id": 1364651143, "feat_type": "way", "quality_categories": "disjointed_geometries, missing_tags", "issue_ids": "[0, 1]", "osm_url": "https://www.openstreetmap.org/way/1364651143", "josm_url": "http://127.0.0.1:8111/load_object?new_layer=false&objects=w1364651143", "id_url": "https://www.openstreetmap.org/edit?editor=id&way=1364651143#map=20/34.4150206/132.4988716"}}, {"type": "Feature", "geometry": {"type": "Point", "coordinates": [132.4999217, 34.4162184]}, "properties": {"id": 1364651148, "feat_type": "way", "quality_categories": "disjointed_geometries, missing_tags", "issue_ids": "[0, 1]", "osm_url": "https://www.openstreetmap.org/way/1364651148", "josm_url": "http://127.0.0.1:8111/load_object?new_layer=false&objects=w1364651148", "id_url": "https://www.openstreetmap.org/edit?editor=id&way=1364651148#map=20/34.4162184/132.4999217"}}, {"type": "Feature", "geometry": {"type": "Point", "coordinates": [132.4988332, 34.4150819]}, "properties": {"id": 1364651152, "feat_type": "way", "quality_categories": "disjointed_geometries, missing_tags", "issue_ids": "[0, 1]", "osm_url": "https://www.openstreetmap.org/way/1364651152", "josm_url": "http://127.0.0.1:8111/load_object?new_layer=false&objects=w1364651152", "id_url": "https://www.openstreetmap.org/edit?editor=id&way=1364651152#map=20/34.4150819/132.4988332"}}, {"type": "Feature", "geometry": {"type": "Point", "coordinates": [132.4903123, 34.4043829]}, "properties": {"id": 1365432147, "feat_type": "way", "quality_categories": "disjointed_geometries, missing_tags", "issue_ids": "[0, 1]", "osm_url": "https://www.openstreetmap.org/way/1365432147", "josm_url": "http://127.0.0.1:8111/load_object?new_layer=false&objects=w1365432147", "id_url": "https://www.openstreetmap.org/edit?editor=id&way=1365432147#map=20/34.4043829/132.4903123"}}, {"type": "Feature", "geometry": {"type": "Point", "coordinates": [132.4920906, 34.3952552]}, "properties": {"id": 1366480372, "feat_type": "way", "quality_categories": "disjointed_geometries, missing_tags", "issue_ids": "[0, 1]", "osm_url": "https://www.openstreetmap.org/way/1366480372", "josm_url": "http://127.0.0.1:8111/load_object?new_layer=false&objects=w1366480372", "id_url": "https://www.openstreetmap.org/edit?editor=id&way=1366480372#map=20/34.3952552/132.4920906"}}, {"type": "Feature", "geometry": {"type": "Point", "coordinates": [132.4980057, 34.401304]}, "properties": {"id": 1367202337, "feat_type": "way", "quality_categories": "disjointed_geometries, missing_tags", "issue_ids": "[0, 1]", "osm_url": "https://www.openstreetmap.org/way/1367202337", "josm_url": "http://127.0.0.1:8111/load_object?new_layer=false&objects=w1367202337", "id_url": "https://www.openstreetmap.org/edit?editor=id&way=1367202337#map=20/34.401304/132.4980057"}}, {"type": "Feature", "geometry": {"type": "Point", "coordinates": [132.4988388, 34.4032209]}, "properties": {"id": 1367205158, "feat_type": "way", "quality_categories": "disjointed_geometries, missing_tags", "issue_ids": "[0, 1]", "osm_url": "https://www.openstreetmap.org/way/1367205158", "josm_url": "http://127.0.0.1:8111/load_object?new_layer=false&objects=w1367205158", "id_url": "https://www.openstreetmap.org/edit?editor=id&way=1367205158#map=20/34.4032209/132.4988388"}}, {"type": "Feature", "geometry": {"type": "Point", "coordinates": [132.4969786, 34.3986638]}, "properties": {"id": 1367207673, "feat_type": "way", "quality_categories": "disjointed_geometries, missing_tags", "issue_ids": "[0, 1]", "osm_url": "https://www.openstreetmap.org/way/1367207673", "josm_url": "http://127.0.0.1:8111/load_object?new_layer=false&objects=w1367207673", "id_url": "https://www.openstreetmap.org/edit?editor=id&way=1367207673#map=20/34.3986638/132.4969786"}}, {"type": "Feature", "geometry": {"type": "Point", "coordinates": [132.4969524, 34.3987715]}, "properties": {"id": 1367207674, "feat_type": "way", "quality_categories": "disjointed_geometries, missing_tags", "issue_ids": "[0, 1]", "osm_url": "https://www.openstreetmap.org/way/1367207674", "josm_url": "http://127.0.0.1:8111/load_object?new_layer=false&objects=w1367207674", "id_url": "https://www.openstreetmap.org/edit?editor=id&way=1367207674#map=20/34.3987715/132.4969524"}}, {"type": "Feature", "geometry": {"type": "Point", "coordinates": [132.4968432, 34.3987724]}, "properties": {"id": 1367207675, "feat_type": "way", "quality_categories": "disjointed_geometries, missing_tags", "issue_ids": "[0, 1]", "osm_url": "https://www.openstreetmap.org/way/1367207675", "josm_url": "http://127.0.0.1:8111/load_object?new_layer=false&objects=w1367207675", "id_url": "https://www.openstreetmap.org/edit?editor=id&way=1367207675#map=20/34.3987724/132.4968432"}}, {"type": "Feature", "geometry": {"type": "Point", "coordinates": [132.5003817, 34.4185697]}, "properties": {"id": 1371011086, "feat_type": "way", "quality_categories": "disjointed_geometries, missing_tags", "issue_ids": "[0, 1]", "osm_url": "https://www.openstreetmap.org/way/1371011086", "josm_url": "http://127.0.0.1:8111/load_object?new_layer=false&objects=w1371011086", "id_url": "https://www.openstreetmap.org/edit?editor=id&way=1371011086#map=20/34.4185697/132.5003817"}}, {"type": "Feature", "geometry": {"type": "Point", "coordinates": [132.4997002, 34.419606]}, "properties": {"id": 1371381044, "feat_type": "way", "quality_categories": "disjointed_geometries, missing_tags", "issue_ids": "[0, 1]", "osm_url": "https://www.openstreetmap.org/way/1371381044", "josm_url": "http://127.0.0.1:8111/load_object?new_layer=false&objects=w1371381044", "id_url": "https://www.openstreetmap.org/edit?editor=id&way=1371381044#map=20/34.419606/132.4997002"}}, {"type": "Feature", "geometry": {"type": "Point", "coordinates": [132.3583139, 34.3638884]}, "properties": {"id": 1388041662, "feat_type": "way", "quality_categories": "disjointed_geometries, missing_tags", "issue_ids": "[0, 1]", "osm_url": "https://www.openstreetmap.org/way/1388041662", "josm_url": "http://127.0.0.1:8111/load_object?new_layer=false&objects=w1388041662", "id_url": "https://www.openstreetmap.org/edit?editor=id&way=1388041662#map=20/34.3638884/132.3583139"}}, {"type": "Feature", "geometry": {"type": "Point", "coordinates": [132.4157152, 34.470776]}, "properties": {"id": 1421786191, "feat_type": "way", "quality_categories": "disjointed_geometries, missing_tags", "issue_ids": "[0, 1]", "osm_url": "https://www.openstreetmap.org/way/1421786191", "josm_url": "http://127.0.0.1:8111/load_object?new_layer=false&objects=w1421786191", "id_url": "https://www.openstreetmap.org/edit?editor=id&way=1421786191#map=20/34.470776/132.4157152"}}, {"type": "Feature", "geometry": {"type": "Point", "coordinates": [132.4590121, 34.3960627]}, "properties": {"id": 1426675807, "feat_type": "way", "quality_categories": "disjointed_geometries, missing_tags", "issue_ids": "[0, 1]", "osm_url": "https://www.openstreetmap.org/way/1426675807", "josm_url": "http://127.0.0.1:8111/load_object?new_layer=false&objects=w1426675807", "id_url": "https://www.openstreetmap.org/edit?editor=id&way=1426675807#map=20/34.3960627/132.4590121"}}, {"type": "Feature", "geometry": {"type": "Point", "coordinates": [132.348765, 34.3694537]}, "properties": {"id": 1483291446, "feat_type": "way", "quality_categories": "disjointed_geometries, missing_tags", "issue_ids": "[0, 1]", "osm_url": "https://www.openstreetmap.org/way/1483291446", "josm_url": "http://127.0.0.1:8111/load_object?new_layer=false&objects=w1483291446", "id_url": "https://www.openstreetmap.org/edit?editor=id&way=1483291446#map=20/34.3694537/132.348765"}}, {"type": "Feature", "geometry": {"type": "Point", "coordinates": [132.2942764, 34.4333723]}, "properties": {"id": 1495971774, "feat_type": "way", "quality_categories": "disjointed_geometries, missing_tags", "issue_ids": "[0, 1]", "osm_url": "https://www.openstreetmap.org/way/1495971774", "josm_url": "http://127.0.0.1:8111/load_object?new_layer=false&objects=w1495971774", "id_url": "https://www.openstreetmap.org/edit?editor=id&way=1495971774#map=20/34.4333723/132.2942764"}}, {"type": "Feature", "geometry": {"type": "Point", "coordinates": [132.3584079, 34.3646689]}, "properties": {"id": 1512461461, "feat_type": "way", "quality_categories": "disjointed_geometries, missing_tags", "issue_ids": "[0, 1]", "osm_url": "https://www.openstreetmap.org/way/1512461461", "josm_url": "http://127.0.0.1:8111/load_object?new_layer=false&objects=w1512461461", "id_url": "https://www.openstreetmap.org/edit?editor=id&way=1512461461#map=20/34.3646689/132.3584079"}}, {"type": "Feature", "geometry": {"type": "Point", "coordinates": [132.363921, 34.396523]}, "properties": {"id": 1517265818, "feat_type": "way", "quality_categories": "disjointed_geometries, missing_tags", "issue_ids": "[0, 1]", "osm_url": "https://www.openstreetmap.org/way/1517265818", "josm_url": "http://127.0.0.1:8111/load_object?new_layer=false&objects=w1517265818", "id_url": "https://www.openstreetmap.org/edit?editor=id&way=1517265818#map=20/34.396523/132.363921"}}, {"type": "Feature", "geometry": {"type": "Point", "coordinates": [132.3636729, 34.3965522]}, "properties": {"id": 1517265819, "feat_type": "way", "quality_categories": "disjointed_geometries, missing_tags", "issue_ids": "[0, 1]", "osm_url": "https://www.openstreetmap.org/way/1517265819", "josm_url": "http://127.0.0.1:8111/load_object?new_layer=false&objects=w1517265819", "id_url": "https://www.openstreetmap.org/edit?editor=id&way=1517265819#map=20/34.3965522/132.3636729"}}, {"type": "Feature", "geometry": {"type": "Point", "coordinates": [132.463496, 34.4808424]}, "properties": {"id": 1537219414, "feat_type": "way", "quality_categories": "disjointed_geometries, missing_tags", "issue_ids": "[0, 1]", "osm_url": "https://www.openstreetmap.org/way/1537219414", "josm_url": "http://127.0.0.1:8111/load_object?new_layer=false&objects=w1537219414", "id_url": "https://www.openstreetmap.org/edit?editor=id&way=1537219414#map=20/34.4808424/132.463496"}}, {"type": "Feature", "geometry": {"type": "Point", "coordinates": [132.4631972, 34.4805497]}, "properties": {"id": 1537219415, "feat_type": "way", "quality_categories": "disjointed_geometries, missing_tags", "issue_ids": "[0, 1]", "osm_url": "https://www.openstreetmap.org/way/1537219415", "josm_url": "http://127.0.0.1:8111/load_object?new_layer=false&objects=w1537219415", "id_url": "https://www.openstreetmap.org/edit?editor=id&way=1537219415#map=20/34.4805497/132.4631972"}}, {"type": "Feature", "geometry": {"type": "Point", "coordinates": [132.4638838, 34.4701018]}, "properties": {"id": 1552544991, "feat_type": "way", "quality_categories": "disjointed_geometries, missing_tags", "issue_ids": "[0, 1]", "osm_url": "https://www.openstreetmap.org/way/1552544991", "josm_url": "http://127.0.0.1:8111/load_object?new_layer=false&objects=w1552544991", "id_url": "https://www.openstreetmap.org/edit?editor=id&way=1552544991#map=20/34.4701018/132.4638838"}}, {"type": "Feature", "geometry": {"type": "Point", "coordinates": [132.2883443, 34.4274463]}, "properties": {"id": 1475187296, "feat_type": "way", "quality_categories": "disjointed_geometries", "issue_ids": "[1]", "osm_url": "https://www.openstreetmap.org/way/1475187296", "josm_url": "http://127.0.0.1:8111/load_object?new_layer=false&objects=w1475187296", "id_url": "https://www.openstreetmap.org/edit?editor=id&way=1475187296#map=20/34.4274463/132.2883443"}}]}