{"type": "FeatureCollection", "features": [{"type": "Feature", "geometry": {"type": "Point", "coordinates": [132.404529, 34.3713929]}, "properties": {"id": 259049978, "feat_type": "node", "quality_categories": "improper_geometries, missing_tags", "issue_ids": "[0, 1]", "osm_url": "https://www.openstreetmap.org/node/259049978", "josm_url": "http://127.0.0.1:8111/load_object?new_layer=false&objects=n259049978", "id_url": "https://www.openstreetmap.org/edit?editor=id&node=259049978#map=20/34.3713929/132.404529"}}, {"type": "Feature", "geometry": {"type": "Point", "coordinates": [132.4044373, 34.3714432]}, "properties": {"id": 266723086, "feat_type": "node", "quality_categories": "improper_geometries, missing_tags", "issue_ids": "[0, 1]", "osm_url": "https://www.openstreetmap.org/node/266723086", "josm_url": "http://127.0.0.1:8111/load_object?new_layer=false&objects=n266723086", "id_url": "https://www.openstreetmap.org/edit?editor=id&node=266723086#map=20/34.3714432/132.4044373"}}, {"type": "Feature", "geometry": {"type": "Point", "coordinates": [132.4085704, 34.3747352]}, "properties": {"id": 1405243150, "feat_type": "node", "quality_categories": "improper_geometries, missing_tags", "issue_ids": "[0, 1]", "osm_url": "https://www.openstreetmap.org/node/1405243150", "josm_url": "http://127.0.0.1:8111/load_object?new_layer=false&objects=n1405243150", "id_url": "https://www.openstreetmap.org/edit?editor=id&node=1405243150#map=20/34.3747352/132.4085704"}}, {"type": "Feature", "geometry": {"type": "Point", "coordinates": [132.4045635, 34.3712514]}, "properties": {"id": 1496240252, "feat_type": "node", "quality_categories": "improper_geometries, missing_tags", "issue_ids": "[0, 1]", "osm_url": "https://www.openstreetmap.org/node/1496240252", "josm_url": "http://127.0.0.1:8111/load_object?new_layer=false&objects=n1496240252", "id_url": "https://www.openstreetmap.org/edit?editor=id&node=1496240252#map=20/34.3712514/132.4045635"}}, {"type": "Feature", "geometry": {"type": "Point", "coordinates": [132.404338, 34.371243]}, "properties": {"id": 4561908827, "feat_type": "node", "quality_categories": "improper_geometries, missing_tags", "issue_ids": "[0, 1]", "osm_url": "https://www.openstreetmap.org/node/4561908827", "josm_url": "http://127.0.0.1:8111/load_object?new_layer=false&objects=n4561908827", "id_url": "https://www.openstreetmap.org/edit?editor=id&node=4561908827#map=20/34.371243/132.404338"}}, {"type": "Feature", "geometry": {"type": "Point", "coordinates": [132.4044302, 34.3711971]}, "properties": {"id": 4561908828, "feat_type": "node", "quality_categories": "improper_geometries, missing_tags", "issue_ids": "[0, 1]", "osm_url": "https://www.openstreetmap.org/node/4561908828", "josm_url": "http://127.0.0.1:8111/load_object?new_layer=false&objects=n4561908828", "id_url": "https://www.openstreetmap.org/edit?editor=id&node=4561908828#map=20/34.3711971/132.4044302"}}, {"type": "Feature", "geometry": {"type": "Point", "coordinates": [132.4043248, 34.3713818]}, "properties": {"id": 4561908829, "feat_type": "node", "quality_categories": "improper_geometries, missing_tags", "issue_ids": "[0, 1]", "osm_url": "https://www.openstreetmap.org/node/4561908829", "josm_url": "http://127.0.0.1:8111/load_object?new_layer=false&objects=n4561908829", "id_url": "https://www.openstreetmap.org/edit?editor=id&node=4561908829#map=20/34.3713818/132.4043248"}}, {"type": "Feature", "geometry": {"type": "Point", "coordinates": [132.4759949636584, 34.395577849999995]}, "properties": {"id": 1341027389, "feat_type": "way", "quality_categories": "improper_geometries, missing_tags", "issue_ids": "[0, 1]", "osm_url": "https://www.openstreetmap.org/way/1341027389", "josm_url": "http://127.0.0.1:8111/load_object?new_layer=false&objects=w1341027389", "id_url": "https://www.openstreetmap.org/edit?editor=id&way=1341027389#map=20/34.395577849999995/132.4759949636584"}}]}