{"type": "FeatureCollection", "features": [{"type": "Feature", "geometry": {"type": "Point", "coordinates": [132.6434913, 34.4341986]}, "properties": {"id": 1485107169, "feat_type": "way", "quality_categories": "crossings_lacking_kerbs, missing_tags, wrong_mispelled_or_unlisted_values", "issue_ids": "[0, 1, 2]", "osm_url": "https://www.openstreetmap.org/way/1485107169", "josm_url": "http://127.0.0.1:8111/load_object?new_layer=false&objects=w1485107169", "id_url": "https://www.openstreetmap.org/edit?editor=id&way=1485107169#map=20/34.4341986/132.6434913"}}, {"type": "Feature", "geometry": {"type": "Point", "coordinates": [132.596949, 34.4213848]}, "properties": {"id": 1485131398, "feat_type": "way", "quality_categories": "crossings_lacking_kerbs, missing_tags, wrong_mispelled_or_unlisted_values", "issue_ids": "[0, 1, 2]", "osm_url": "https://www.openstreetmap.org/way/1485131398", "josm_url": "http://127.0.0.1:8111/load_object?new_layer=false&objects=w1485131398", "id_url": "https://www.openstreetmap.org/edit?editor=id&way=1485131398#map=20/34.4213848/132.596949"}}, {"type": "Feature", "geometry": {"type": "Point", "coordinates": [132.5864172, 34.4150681]}, "properties": {"id": 1485135853, "feat_type": "way", "quality_categories": "crossings_lacking_kerbs, missing_tags, wrong_mispelled_or_unlisted_values", "issue_ids": "[0, 1, 2]", "osm_url": "https://www.openstreetmap.org/way/1485135853", "josm_url": "http://127.0.0.1:8111/load_object?new_layer=false&objects=w1485135853", "id_url": "https://www.openstreetmap.org/edit?editor=id&way=1485135853#map=20/34.4150681/132.5864172"}}]}