{"type": "FeatureCollection", "features": [{"type": "Feature", "geometry": {"type": "Point", "coordinates": [132.48400531585713, 34.392676]}, "properties": {"id": 2116087, "feat_type": "relation", "quality_categories": "improper_keys, missing_tags, older_than_five_years", "issue_ids": "[0, 1, 2]", "osm_url": "https://www.openstreetmap.org/relation/2116087", "josm_url": "http://127.0.0.1:8111/load_object?new_layer=false&objects=r2116087", "id_url": "https://www.openstreetmap.org/edit?editor=id&relation=2116087#map=20/34.392676/132.48400531585713"}}]}