{"type": "FeatureCollection", "features": [{"type": "Feature", "geometry": {"type": "Point", "coordinates": [132.4681257, 34.4638487]}, "properties": {"id": 798536802, "feat_type": "way", "quality_categories": "invalid_characters, missing_tags", "issue_ids": "[0, 1]", "osm_url": "https://www.openstreetmap.org/way/798536802", "josm_url": "http://127.0.0.1:8111/load_object?new_layer=false&objects=w798536802", "id_url": "https://www.openstreetmap.org/edit?editor=id&way=798536802#map=20/34.4638487/132.4681257"}}]}