{"type": "FeatureCollection", "features": [{"type": "Feature", "geometry": {"type": "Point", "coordinates": [132.4548043, 34.3958027]}, "properties": {"id": 179573574, "feat_type": "way", "quality_categories": "keys_without_wiki, missing_tags, older_than_five_years", "issue_ids": "[0, 1, 2]", "osm_url": "https://www.openstreetmap.org/way/179573574", "josm_url": "http://127.0.0.1:8111/load_object?new_layer=false&objects=w179573574", "id_url": "https://www.openstreetmap.org/edit?editor=id&way=179573574#map=20/34.3958027/132.4548043"}}, {"type": "Feature", "geometry": {"type": "Point", "coordinates": [132.6096663, 34.4218357]}, "properties": {"id": 662813849, "feat_type": "way", "quality_categories": "keys_without_wiki, missing_tags, older_than_five_years", "issue_ids": "[3, 4, 2]", "osm_url": "https://www.openstreetmap.org/way/662813849", "josm_url": "http://127.0.0.1:8111/load_object?new_layer=false&objects=w662813849", "id_url": "https://www.openstreetmap.org/edit?editor=id&way=662813849#map=20/34.4218357/132.6096663"}}]}