{"type": "FeatureCollection", "features": [{"type": "Feature", "geometry": {"type": "Point", "coordinates": [132.4250135, 34.3978705]}, "properties": {"id": 313039517, "feat_type": "way", "quality_categories": "wrong_mispelled_or_unlisted_values", "issue_ids": "[0]", "osm_url": "https://www.openstreetmap.org/way/313039517", "josm_url": "http://127.0.0.1:8111/load_object?new_layer=false&objects=w313039517", "id_url": "https://www.openstreetmap.org/edit?editor=id&way=313039517#map=20/34.3978705/132.4250135"}}, {"type": "Feature", "geometry": {"type": "Point", "coordinates": [132.4582881, 34.3944694]}, "properties": {"id": 1428084007, "feat_type": "way", "quality_categories": "wrong_mispelled_or_unlisted_values", "issue_ids": "[0]", "osm_url": "https://www.openstreetmap.org/way/1428084007", "josm_url": "http://127.0.0.1:8111/load_object?new_layer=false&objects=w1428084007", "id_url": "https://www.openstreetmap.org/edit?editor=id&way=1428084007#map=20/34.3944694/132.4582881"}}, {"type": "Feature", "geometry": {"type": "Point", "coordinates": [132.4251827, 34.3973304]}, "properties": {"id": 1442580410, "feat_type": "way", "quality_categories": "wrong_mispelled_or_unlisted_values", "issue_ids": "[0]", "osm_url": "https://www.openstreetmap.org/way/1442580410", "josm_url": "http://127.0.0.1:8111/load_object?new_layer=false&objects=w1442580410", "id_url": "https://www.openstreetmap.org/edit?editor=id&way=1442580410#map=20/34.3973304/132.4251827"}}, {"type": "Feature", "geometry": {"type": "Point", "coordinates": [132.4251524, 34.3974854]}, "properties": {"id": 1442580412, "feat_type": "way", "quality_categories": "wrong_mispelled_or_unlisted_values", "issue_ids": "[0]", "osm_url": "https://www.openstreetmap.org/way/1442580412", "josm_url": "http://127.0.0.1:8111/load_object?new_layer=false&objects=w1442580412", "id_url": "https://www.openstreetmap.org/edit?editor=id&way=1442580412#map=20/34.3974854/132.4251524"}}, {"type": "Feature", "geometry": {"type": "Point", "coordinates": [132.4248506, 34.3972655]}, "properties": {"id": 1459345628, "feat_type": "way", "quality_categories": "wrong_mispelled_or_unlisted_values", "issue_ids": "[0]", "osm_url": "https://www.openstreetmap.org/way/1459345628", "josm_url": "http://127.0.0.1:8111/load_object?new_layer=false&objects=w1459345628", "id_url": "https://www.openstreetmap.org/edit?editor=id&way=1459345628#map=20/34.3972655/132.4248506"}}, {"type": "Feature", "geometry": {"type": "Point", "coordinates": [132.4248318, 34.3971855]}, "properties": {"id": 1459345631, "feat_type": "way", "quality_categories": "wrong_mispelled_or_unlisted_values", "issue_ids": "[0]", "osm_url": "https://www.openstreetmap.org/way/1459345631", "josm_url": "http://127.0.0.1:8111/load_object?new_layer=false&objects=w1459345631", "id_url": "https://www.openstreetmap.org/edit?editor=id&way=1459345631#map=20/34.3971855/132.4248318"}}, {"type": "Feature", "geometry": {"type": "Point", "coordinates": [132.4247527, 34.3971682]}, "properties": {"id": 1459345663, "feat_type": "way", "quality_categories": "wrong_mispelled_or_unlisted_values", "issue_ids": "[0]", "osm_url": "https://www.openstreetmap.org/way/1459345663", "josm_url": "http://127.0.0.1:8111/load_object?new_layer=false&objects=w1459345663", "id_url": "https://www.openstreetmap.org/edit?editor=id&way=1459345663#map=20/34.3971682/132.4247527"}}]}