{"type": "FeatureCollection", "features": [{"type": "Feature", "geometry": {"type": "Point", "coordinates": [132.4594704, 34.3504258]}, "properties": {"id": 1346548948, "feat_type": "node", "quality_categories": "disjointed_geometries, improper_keys", "issue_ids": "[0, 1]", "osm_url": "https://www.openstreetmap.org/node/1346548948", "josm_url": "http://127.0.0.1:8111/load_object?new_layer=false&objects=n1346548948", "id_url": "https://www.openstreetmap.org/edit?editor=id&node=1346548948#map=20/34.3504258/132.4594704"}}, {"type": "Feature", "geometry": {"type": "Point", "coordinates": [132.4589471, 34.3489828]}, "properties": {"id": 1472872676, "feat_type": "node", "quality_categories": "disjointed_geometries, improper_keys", "issue_ids": "[0, 1]", "osm_url": "https://www.openstreetmap.org/node/1472872676", "josm_url": "http://127.0.0.1:8111/load_object?new_layer=false&objects=n1472872676", "id_url": "https://www.openstreetmap.org/edit?editor=id&node=1472872676#map=20/34.3489828/132.4589471"}}, {"type": "Feature", "geometry": {"type": "Point", "coordinates": [132.4730112, 34.3910187]}, "properties": {"id": 1525967066, "feat_type": "node", "quality_categories": "disjointed_geometries, improper_keys, uncanny_keys", "issue_ids": "[2, 3, 1]", "osm_url": "https://www.openstreetmap.org/node/1525967066", "josm_url": "http://127.0.0.1:8111/load_object?new_layer=false&objects=n1525967066", "id_url": "https://www.openstreetmap.org/edit?editor=id&node=1525967066#map=20/34.3910187/132.4730112"}}, {"type": "Feature", "geometry": {"type": "Point", "coordinates": [132.4730188, 34.3911037]}, "properties": {"id": 5817990857, "feat_type": "node", "quality_categories": "disjointed_geometries, improper_keys, uncanny_keys", "issue_ids": "[2, 3, 1]", "osm_url": "https://www.openstreetmap.org/node/5817990857", "josm_url": "http://127.0.0.1:8111/load_object?new_layer=false&objects=n5817990857", "id_url": "https://www.openstreetmap.org/edit?editor=id&node=5817990857#map=20/34.3911037/132.4730188"}}, {"type": "Feature", "geometry": {"type": "Point", "coordinates": [132.4731359, 34.3909968]}, "properties": {"id": 5817990858, "feat_type": "node", "quality_categories": "disjointed_geometries, improper_keys, uncanny_keys", "issue_ids": "[2, 3, 1]", "osm_url": "https://www.openstreetmap.org/node/5817990858", "josm_url": "http://127.0.0.1:8111/load_object?new_layer=false&objects=n5817990858", "id_url": "https://www.openstreetmap.org/edit?editor=id&node=5817990858#map=20/34.3909968/132.4731359"}}, {"type": "Feature", "geometry": {"type": "Point", "coordinates": [132.4475711, 34.3958425]}, "properties": {"id": 12925825300, "feat_type": "node", "quality_categories": "disjointed_geometries", "issue_ids": "[1]", "osm_url": "https://www.openstreetmap.org/node/12925825300", "josm_url": "http://127.0.0.1:8111/load_object?new_layer=false&objects=n12925825300", "id_url": "https://www.openstreetmap.org/edit?editor=id&node=12925825300#map=20/34.3958425/132.4475711"}}, {"type": "Feature", "geometry": {"type": "Point", "coordinates": [132.4596659, 34.4017046]}, "properties": {"id": 361221371, "feat_type": "way", "quality_categories": "disjointed_geometries", "issue_ids": "[1]", "osm_url": "https://www.openstreetmap.org/way/361221371", "josm_url": "http://127.0.0.1:8111/load_object?new_layer=false&objects=w361221371", "id_url": "https://www.openstreetmap.org/edit?editor=id&way=361221371#map=20/34.4017046/132.4596659"}}, {"type": "Feature", "geometry": {"type": "Point", "coordinates": [132.479444, 34.4634399]}, "properties": {"id": 627293059, "feat_type": "way", "quality_categories": "disjointed_geometries", "issue_ids": "[1]", "osm_url": "https://www.openstreetmap.org/way/627293059", "josm_url": "http://127.0.0.1:8111/load_object?new_layer=false&objects=w627293059", "id_url": "https://www.openstreetmap.org/edit?editor=id&way=627293059#map=20/34.4634399/132.479444"}}, {"type": "Feature", "geometry": {"type": "Point", "coordinates": [132.4795022, 34.4634372]}, "properties": {"id": 627293060, "feat_type": "way", "quality_categories": "disjointed_geometries", "issue_ids": "[1]", "osm_url": "https://www.openstreetmap.org/way/627293060", "josm_url": "http://127.0.0.1:8111/load_object?new_layer=false&objects=w627293060", "id_url": "https://www.openstreetmap.org/edit?editor=id&way=627293060#map=20/34.4634372/132.4795022"}}, {"type": "Feature", "geometry": {"type": "Point", "coordinates": [132.4795593, 34.4634318]}, "properties": {"id": 627293061, "feat_type": "way", "quality_categories": "disjointed_geometries", "issue_ids": "[1]", "osm_url": "https://www.openstreetmap.org/way/627293061", "josm_url": "http://127.0.0.1:8111/load_object?new_layer=false&objects=w627293061", "id_url": "https://www.openstreetmap.org/edit?editor=id&way=627293061#map=20/34.4634318/132.4795593"}}, {"type": "Feature", "geometry": {"type": "Point", "coordinates": [132.4796144, 34.4634324]}, "properties": {"id": 627293062, "feat_type": "way", "quality_categories": "disjointed_geometries", "issue_ids": "[1]", "osm_url": "https://www.openstreetmap.org/way/627293062", "josm_url": "http://127.0.0.1:8111/load_object?new_layer=false&objects=w627293062", "id_url": "https://www.openstreetmap.org/edit?editor=id&way=627293062#map=20/34.4634324/132.4796144"}}, {"type": "Feature", "geometry": {"type": "Point", "coordinates": [132.4796788, 34.4634289]}, "properties": {"id": 627293063, "feat_type": "way", "quality_categories": "disjointed_geometries", "issue_ids": "[1]", "osm_url": "https://www.openstreetmap.org/way/627293063", "josm_url": "http://127.0.0.1:8111/load_object?new_layer=false&objects=w627293063", "id_url": "https://www.openstreetmap.org/edit?editor=id&way=627293063#map=20/34.4634289/132.4796788"}}, {"type": "Feature", "geometry": {"type": "Point", "coordinates": [132.4095621, 34.3906415]}, "properties": {"id": 1194297522, "feat_type": "way", "quality_categories": "disjointed_geometries", "issue_ids": "[1]", "osm_url": "https://www.openstreetmap.org/way/1194297522", "josm_url": "http://127.0.0.1:8111/load_object?new_layer=false&objects=w1194297522", "id_url": "https://www.openstreetmap.org/edit?editor=id&way=1194297522#map=20/34.3906415/132.4095621"}}, {"type": "Feature", "geometry": {"type": "Point", "coordinates": [132.3811634, 34.411758]}, "properties": {"id": 1242530065, "feat_type": "way", "quality_categories": "disjointed_geometries", "issue_ids": "[1]", "osm_url": "https://www.openstreetmap.org/way/1242530065", "josm_url": "http://127.0.0.1:8111/load_object?new_layer=false&objects=w1242530065", "id_url": "https://www.openstreetmap.org/edit?editor=id&way=1242530065#map=20/34.411758/132.3811634"}}, {"type": "Feature", "geometry": {"type": "Point", "coordinates": [132.3776006, 34.4089296]}, "properties": {"id": 1249023474, "feat_type": "way", "quality_categories": "disjointed_geometries", "issue_ids": "[1]", "osm_url": "https://www.openstreetmap.org/way/1249023474", "josm_url": "http://127.0.0.1:8111/load_object?new_layer=false&objects=w1249023474", "id_url": "https://www.openstreetmap.org/edit?editor=id&way=1249023474#map=20/34.4089296/132.3776006"}}, {"type": "Feature", "geometry": {"type": "Point", "coordinates": [132.4290425, 34.4182687]}, "properties": {"id": 1385548986, "feat_type": "way", "quality_categories": "disjointed_geometries", "issue_ids": "[1]", "osm_url": "https://www.openstreetmap.org/way/1385548986", "josm_url": "http://127.0.0.1:8111/load_object?new_layer=false&objects=w1385548986", "id_url": "https://www.openstreetmap.org/edit?editor=id&way=1385548986#map=20/34.4182687/132.4290425"}}, {"type": "Feature", "geometry": {"type": "Point", "coordinates": [132.4251835, 34.4218805]}, "properties": {"id": 1390687014, "feat_type": "way", "quality_categories": "disjointed_geometries", "issue_ids": "[1]", "osm_url": "https://www.openstreetmap.org/way/1390687014", "josm_url": "http://127.0.0.1:8111/load_object?new_layer=false&objects=w1390687014", "id_url": "https://www.openstreetmap.org/edit?editor=id&way=1390687014#map=20/34.4218805/132.4251835"}}, {"type": "Feature", "geometry": {"type": "Point", "coordinates": [132.425189, 34.4218728]}, "properties": {"id": 1390687015, "feat_type": "way", "quality_categories": "disjointed_geometries", "issue_ids": "[1]", "osm_url": "https://www.openstreetmap.org/way/1390687015", "josm_url": "http://127.0.0.1:8111/load_object?new_layer=false&objects=w1390687015", "id_url": "https://www.openstreetmap.org/edit?editor=id&way=1390687015#map=20/34.4218728/132.425189"}}, {"type": "Feature", "geometry": {"type": "Point", "coordinates": [132.2946196, 34.4279661]}, "properties": {"id": 1486509189, "feat_type": "way", "quality_categories": "disjointed_geometries", "issue_ids": "[1]", "osm_url": "https://www.openstreetmap.org/way/1486509189", "josm_url": "http://127.0.0.1:8111/load_object?new_layer=false&objects=w1486509189", "id_url": "https://www.openstreetmap.org/edit?editor=id&way=1486509189#map=20/34.4279661/132.2946196"}}, {"type": "Feature", "geometry": {"type": "Point", "coordinates": [132.2951727, 34.4275436]}, "properties": {"id": 1486509190, "feat_type": "way", "quality_categories": "disjointed_geometries", "issue_ids": "[1]", "osm_url": "https://www.openstreetmap.org/way/1486509190", "josm_url": "http://127.0.0.1:8111/load_object?new_layer=false&objects=w1486509190", "id_url": "https://www.openstreetmap.org/edit?editor=id&way=1486509190#map=20/34.4275436/132.2951727"}}, {"type": "Feature", "geometry": {"type": "Point", "coordinates": [132.295289, 34.4278165]}, "properties": {"id": 1486509194, "feat_type": "way", "quality_categories": "disjointed_geometries", "issue_ids": "[1]", "osm_url": "https://www.openstreetmap.org/way/1486509194", "josm_url": "http://127.0.0.1:8111/load_object?new_layer=false&objects=w1486509194", "id_url": "https://www.openstreetmap.org/edit?editor=id&way=1486509194#map=20/34.4278165/132.295289"}}, {"type": "Feature", "geometry": {"type": "Point", "coordinates": [132.2964393, 34.4274556]}, "properties": {"id": 1486509195, "feat_type": "way", "quality_categories": "disjointed_geometries", "issue_ids": "[1]", "osm_url": "https://www.openstreetmap.org/way/1486509195", "josm_url": "http://127.0.0.1:8111/load_object?new_layer=false&objects=w1486509195", "id_url": "https://www.openstreetmap.org/edit?editor=id&way=1486509195#map=20/34.4274556/132.2964393"}}, {"type": "Feature", "geometry": {"type": "Point", "coordinates": [132.2998992, 34.4321257]}, "properties": {"id": 1491202254, "feat_type": "way", "quality_categories": "disjointed_geometries", "issue_ids": "[1]", "osm_url": "https://www.openstreetmap.org/way/1491202254", "josm_url": "http://127.0.0.1:8111/load_object?new_layer=false&objects=w1491202254", "id_url": "https://www.openstreetmap.org/edit?editor=id&way=1491202254#map=20/34.4321257/132.2998992"}}, {"type": "Feature", "geometry": {"type": "Point", "coordinates": [132.2999111, 34.4320694]}, "properties": {"id": 1491202255, "feat_type": "way", "quality_categories": "disjointed_geometries", "issue_ids": "[1]", "osm_url": "https://www.openstreetmap.org/way/1491202255", "josm_url": "http://127.0.0.1:8111/load_object?new_layer=false&objects=w1491202255", "id_url": "https://www.openstreetmap.org/edit?editor=id&way=1491202255#map=20/34.4320694/132.2999111"}}, {"type": "Feature", "geometry": {"type": "Point", "coordinates": [132.4269992, 34.3982433]}, "properties": {"id": 1500762812, "feat_type": "way", "quality_categories": "disjointed_geometries", "issue_ids": "[1]", "osm_url": "https://www.openstreetmap.org/way/1500762812", "josm_url": "http://127.0.0.1:8111/load_object?new_layer=false&objects=w1500762812", "id_url": "https://www.openstreetmap.org/edit?editor=id&way=1500762812#map=20/34.3982433/132.4269992"}}, {"type": "Feature", "geometry": {"type": "Point", "coordinates": [132.2954922, 34.4271694]}, "properties": {"id": 1526775676, "feat_type": "way", "quality_categories": "disjointed_geometries", "issue_ids": "[1]", "osm_url": "https://www.openstreetmap.org/way/1526775676", "josm_url": "http://127.0.0.1:8111/load_object?new_layer=false&objects=w1526775676", "id_url": "https://www.openstreetmap.org/edit?editor=id&way=1526775676#map=20/34.4271694/132.2954922"}}, {"type": "Feature", "geometry": {"type": "Point", "coordinates": [132.2950245, 34.4274693]}, "properties": {"id": 1526775677, "feat_type": "way", "quality_categories": "disjointed_geometries", "issue_ids": "[1]", "osm_url": "https://www.openstreetmap.org/way/1526775677", "josm_url": "http://127.0.0.1:8111/load_object?new_layer=false&objects=w1526775677", "id_url": "https://www.openstreetmap.org/edit?editor=id&way=1526775677#map=20/34.4274693/132.2950245"}}, {"type": "Feature", "geometry": {"type": "Point", "coordinates": [132.2999005, 34.4319096]}, "properties": {"id": 1537510356, "feat_type": "way", "quality_categories": "disjointed_geometries", "issue_ids": "[1]", "osm_url": "https://www.openstreetmap.org/way/1537510356", "josm_url": "http://127.0.0.1:8111/load_object?new_layer=false&objects=w1537510356", "id_url": "https://www.openstreetmap.org/edit?editor=id&way=1537510356#map=20/34.4319096/132.2999005"}}, {"type": "Feature", "geometry": {"type": "Point", "coordinates": [132.299832, 34.4308729]}, "properties": {"id": 1537510357, "feat_type": "way", "quality_categories": "disjointed_geometries", "issue_ids": "[1]", "osm_url": "https://www.openstreetmap.org/way/1537510357", "josm_url": "http://127.0.0.1:8111/load_object?new_layer=false&objects=w1537510357", "id_url": "https://www.openstreetmap.org/edit?editor=id&way=1537510357#map=20/34.4308729/132.299832"}}, {"type": "Feature", "geometry": {"type": "Point", "coordinates": [132.2997566, 34.4297332]}, "properties": {"id": 1537586847, "feat_type": "way", "quality_categories": "disjointed_geometries", "issue_ids": "[1]", "osm_url": "https://www.openstreetmap.org/way/1537586847", "josm_url": "http://127.0.0.1:8111/load_object?new_layer=false&objects=w1537586847", "id_url": "https://www.openstreetmap.org/edit?editor=id&way=1537586847#map=20/34.4297332/132.2997566"}}, {"type": "Feature", "geometry": {"type": "Point", "coordinates": [132.2995337, 34.429686]}, "properties": {"id": 1537586848, "feat_type": "way", "quality_categories": "disjointed_geometries", "issue_ids": "[1]", "osm_url": "https://www.openstreetmap.org/way/1537586848", "josm_url": "http://127.0.0.1:8111/load_object?new_layer=false&objects=w1537586848", "id_url": "https://www.openstreetmap.org/edit?editor=id&way=1537586848#map=20/34.429686/132.2995337"}}, {"type": "Feature", "geometry": {"type": "Point", "coordinates": [132.4266454, 34.3982123]}, "properties": {"id": 1549973993, "feat_type": "way", "quality_categories": "disjointed_geometries", "issue_ids": "[1]", "osm_url": "https://www.openstreetmap.org/way/1549973993", "josm_url": "http://127.0.0.1:8111/load_object?new_layer=false&objects=w1549973993", "id_url": "https://www.openstreetmap.org/edit?editor=id&way=1549973993#map=20/34.3982123/132.4266454"}}]}