{"type": "FeatureCollection", "features": [{"type": "Feature", "geometry": {"type": "Point", "coordinates": [132.4594704, 34.3504258]}, "properties": {"id": 1346548948, "feat_type": "node", "quality_categories": "disjointed_geometries, improper_keys", "issue_ids": "[0, 1]", "osm_url": "https://www.openstreetmap.org/node/1346548948", "josm_url": "http://127.0.0.1:8111/load_object?new_layer=false&objects=n1346548948", "id_url": "https://www.openstreetmap.org/edit?editor=id&node=1346548948#map=20/34.3504258/132.4594704"}}, {"type": "Feature", "geometry": {"type": "Point", "coordinates": [132.4589616, 34.3898992]}, "properties": {"id": 1396667995, "feat_type": "node", "quality_categories": "improper_keys, kerb_on_top_of_non_crossing", "issue_ids": "[2, 3]", "osm_url": "https://www.openstreetmap.org/node/1396667995", "josm_url": "http://127.0.0.1:8111/load_object?new_layer=false&objects=n1396667995", "id_url": "https://www.openstreetmap.org/edit?editor=id&node=1396667995#map=20/34.3898992/132.4589616"}}, {"type": "Feature", "geometry": {"type": "Point", "coordinates": [132.4589471, 34.3489828]}, "properties": {"id": 1472872676, "feat_type": "node", "quality_categories": "disjointed_geometries, improper_keys", "issue_ids": "[0, 1]", "osm_url": "https://www.openstreetmap.org/node/1472872676", "josm_url": "http://127.0.0.1:8111/load_object?new_layer=false&objects=n1472872676", "id_url": "https://www.openstreetmap.org/edit?editor=id&node=1472872676#map=20/34.3489828/132.4589471"}}, {"type": "Feature", "geometry": {"type": "Point", "coordinates": [132.4730112, 34.3910187]}, "properties": {"id": 1525967066, "feat_type": "node", "quality_categories": "disjointed_geometries, improper_keys, uncanny_keys", "issue_ids": "[4, 5, 1]", "osm_url": "https://www.openstreetmap.org/node/1525967066", "josm_url": "http://127.0.0.1:8111/load_object?new_layer=false&objects=n1525967066", "id_url": "https://www.openstreetmap.org/edit?editor=id&node=1525967066#map=20/34.3910187/132.4730112"}}, {"type": "Feature", "geometry": {"type": "Point", "coordinates": [132.3490881, 34.3634698]}, "properties": {"id": 4427781225, "feat_type": "node", "quality_categories": "improper_keys, uncanny_keys", "issue_ids": "[4, 5]", "osm_url": "https://www.openstreetmap.org/node/4427781225", "josm_url": "http://127.0.0.1:8111/load_object?new_layer=false&objects=n4427781225", "id_url": "https://www.openstreetmap.org/edit?editor=id&node=4427781225#map=20/34.3634698/132.3490881"}}, {"type": "Feature", "geometry": {"type": "Point", "coordinates": [132.4730188, 34.3911037]}, "properties": {"id": 5817990857, "feat_type": "node", "quality_categories": "disjointed_geometries, improper_keys, uncanny_keys", "issue_ids": "[4, 5, 1]", "osm_url": "https://www.openstreetmap.org/node/5817990857", "josm_url": "http://127.0.0.1:8111/load_object?new_layer=false&objects=n5817990857", "id_url": "https://www.openstreetmap.org/edit?editor=id&node=5817990857#map=20/34.3911037/132.4730188"}}, {"type": "Feature", "geometry": {"type": "Point", "coordinates": [132.4731359, 34.3909968]}, "properties": {"id": 5817990858, "feat_type": "node", "quality_categories": "disjointed_geometries, improper_keys, uncanny_keys", "issue_ids": "[4, 5, 1]", "osm_url": "https://www.openstreetmap.org/node/5817990858", "josm_url": "http://127.0.0.1:8111/load_object?new_layer=false&objects=n5817990858", "id_url": "https://www.openstreetmap.org/edit?editor=id&node=5817990858#map=20/34.3909968/132.4731359"}}]}