{"type": "FeatureCollection", "features": [{"type": "Feature", "geometry": {"type": "Point", "coordinates": [132.4589616, 34.3898992]}, "properties": {"id": 1396667995, "feat_type": "node", "quality_categories": "improper_keys, kerb_on_top_of_non_crossing", "issue_ids": "[0, 1]", "osm_url": "https://www.openstreetmap.org/node/1396667995", "josm_url": "http://127.0.0.1:8111/load_object?new_layer=false&objects=n1396667995", "id_url": "https://www.openstreetmap.org/edit?editor=id&node=1396667995#map=20/34.3898992/132.4589616"}}, {"type": "Feature", "geometry": {"type": "Point", "coordinates": [132.4737417, 34.4602884]}, "properties": {"id": 7468609446, "feat_type": "node", "quality_categories": "kerb_on_top_of_non_crossing, older_than_five_years", "issue_ids": "[2, 1]", "osm_url": "https://www.openstreetmap.org/node/7468609446", "josm_url": "http://127.0.0.1:8111/load_object?new_layer=false&objects=n7468609446", "id_url": "https://www.openstreetmap.org/edit?editor=id&node=7468609446#map=20/34.4602884/132.4737417"}}, {"type": "Feature", "geometry": {"type": "Point", "coordinates": [132.4667992, 34.4585361]}, "properties": {"id": 7502200182, "feat_type": "node", "quality_categories": "kerb_on_top_of_non_crossing, older_than_five_years", "issue_ids": "[3, 1]", "osm_url": "https://www.openstreetmap.org/node/7502200182", "josm_url": "http://127.0.0.1:8111/load_object?new_layer=false&objects=n7502200182", "id_url": "https://www.openstreetmap.org/edit?editor=id&node=7502200182#map=20/34.4585361/132.4667992"}}, {"type": "Feature", "geometry": {"type": "Point", "coordinates": [132.4925767, 34.3941976]}, "properties": {"id": 4285982373, "feat_type": "node", "quality_categories": "kerb_on_top_of_non_crossing", "issue_ids": "[1]", "osm_url": "https://www.openstreetmap.org/node/4285982373", "josm_url": "http://127.0.0.1:8111/load_object?new_layer=false&objects=n4285982373", "id_url": "https://www.openstreetmap.org/edit?editor=id&node=4285982373#map=20/34.3941976/132.4925767"}}, {"type": "Feature", "geometry": {"type": "Point", "coordinates": [132.2911451, 34.4340152]}, "properties": {"id": 8690802688, "feat_type": "node", "quality_categories": "kerb_on_top_of_non_crossing", "issue_ids": "[1]", "osm_url": "https://www.openstreetmap.org/node/8690802688", "josm_url": "http://127.0.0.1:8111/load_object?new_layer=false&objects=n8690802688", "id_url": "https://www.openstreetmap.org/edit?editor=id&node=8690802688#map=20/34.4340152/132.2911451"}}, {"type": "Feature", "geometry": {"type": "Point", "coordinates": [132.382173, 34.4097387]}, "properties": {"id": 11471988899, "feat_type": "node", "quality_categories": "kerb_on_top_of_non_crossing", "issue_ids": "[1]", "osm_url": "https://www.openstreetmap.org/node/11471988899", "josm_url": "http://127.0.0.1:8111/load_object?new_layer=false&objects=n11471988899", "id_url": "https://www.openstreetmap.org/edit?editor=id&node=11471988899#map=20/34.4097387/132.382173"}}, {"type": "Feature", "geometry": {"type": "Point", "coordinates": [132.3822442, 34.4097552]}, "properties": {"id": 11471988908, "feat_type": "node", "quality_categories": "kerb_on_top_of_non_crossing", "issue_ids": "[1]", "osm_url": "https://www.openstreetmap.org/node/11471988908", "josm_url": "http://127.0.0.1:8111/load_object?new_layer=false&objects=n11471988908", "id_url": "https://www.openstreetmap.org/edit?editor=id&node=11471988908#map=20/34.4097552/132.3822442"}}, {"type": "Feature", "geometry": {"type": "Point", "coordinates": [132.3817101, 34.4095012]}, "properties": {"id": 11471988909, "feat_type": "node", "quality_categories": "kerb_on_top_of_non_crossing", "issue_ids": "[1]", "osm_url": "https://www.openstreetmap.org/node/11471988909", "josm_url": "http://127.0.0.1:8111/load_object?new_layer=false&objects=n11471988909", "id_url": "https://www.openstreetmap.org/edit?editor=id&node=11471988909#map=20/34.4095012/132.3817101"}}, {"type": "Feature", "geometry": {"type": "Point", "coordinates": [132.3749185, 34.4367416]}, "properties": {"id": 11871661138, "feat_type": "node", "quality_categories": "kerb_on_top_of_non_crossing", "issue_ids": "[1]", "osm_url": "https://www.openstreetmap.org/node/11871661138", "josm_url": "http://127.0.0.1:8111/load_object?new_layer=false&objects=n11871661138", "id_url": "https://www.openstreetmap.org/edit?editor=id&node=11871661138#map=20/34.4367416/132.3749185"}}, {"type": "Feature", "geometry": {"type": "Point", "coordinates": [132.3757734, 34.4363278]}, "properties": {"id": 11871661151, "feat_type": "node", "quality_categories": "kerb_on_top_of_non_crossing", "issue_ids": "[1]", "osm_url": "https://www.openstreetmap.org/node/11871661151", "josm_url": "http://127.0.0.1:8111/load_object?new_layer=false&objects=n11871661151", "id_url": "https://www.openstreetmap.org/edit?editor=id&node=11871661151#map=20/34.4363278/132.3757734"}}, {"type": "Feature", "geometry": {"type": "Point", "coordinates": [132.3766715, 34.4346729]}, "properties": {"id": 11871761412, "feat_type": "node", "quality_categories": "kerb_on_top_of_non_crossing", "issue_ids": "[1]", "osm_url": "https://www.openstreetmap.org/node/11871761412", "josm_url": "http://127.0.0.1:8111/load_object?new_layer=false&objects=n11871761412", "id_url": "https://www.openstreetmap.org/edit?editor=id&node=11871761412#map=20/34.4346729/132.3766715"}}, {"type": "Feature", "geometry": {"type": "Point", "coordinates": [132.3784883, 34.4287264]}, "properties": {"id": 11871981943, "feat_type": "node", "quality_categories": "kerb_on_top_of_non_crossing", "issue_ids": "[1]", "osm_url": "https://www.openstreetmap.org/node/11871981943", "josm_url": "http://127.0.0.1:8111/load_object?new_layer=false&objects=n11871981943", "id_url": "https://www.openstreetmap.org/edit?editor=id&node=11871981943#map=20/34.4287264/132.3784883"}}, {"type": "Feature", "geometry": {"type": "Point", "coordinates": [132.3788722, 34.4276569]}, "properties": {"id": 11872142181, "feat_type": "node", "quality_categories": "kerb_on_top_of_non_crossing", "issue_ids": "[1]", "osm_url": "https://www.openstreetmap.org/node/11872142181", "josm_url": "http://127.0.0.1:8111/load_object?new_layer=false&objects=n11872142181", "id_url": "https://www.openstreetmap.org/edit?editor=id&node=11872142181#map=20/34.4276569/132.3788722"}}, {"type": "Feature", "geometry": {"type": "Point", "coordinates": [132.384725, 34.4199247]}, "properties": {"id": 11872142353, "feat_type": "node", "quality_categories": "kerb_on_top_of_non_crossing", "issue_ids": "[1]", "osm_url": "https://www.openstreetmap.org/node/11872142353", "josm_url": "http://127.0.0.1:8111/load_object?new_layer=false&objects=n11872142353", "id_url": "https://www.openstreetmap.org/edit?editor=id&node=11872142353#map=20/34.4199247/132.384725"}}, {"type": "Feature", "geometry": {"type": "Point", "coordinates": [132.3531663, 34.3834623]}, "properties": {"id": 12461088058, "feat_type": "node", "quality_categories": "kerb_on_top_of_non_crossing", "issue_ids": "[1]", "osm_url": "https://www.openstreetmap.org/node/12461088058", "josm_url": "http://127.0.0.1:8111/load_object?new_layer=false&objects=n12461088058", "id_url": "https://www.openstreetmap.org/edit?editor=id&node=12461088058#map=20/34.3834623/132.3531663"}}, {"type": "Feature", "geometry": {"type": "Point", "coordinates": [132.3533817, 34.3831213]}, "properties": {"id": 12461088253, "feat_type": "node", "quality_categories": "kerb_on_top_of_non_crossing", "issue_ids": "[1]", "osm_url": "https://www.openstreetmap.org/node/12461088253", "josm_url": "http://127.0.0.1:8111/load_object?new_layer=false&objects=n12461088253", "id_url": "https://www.openstreetmap.org/edit?editor=id&node=12461088253#map=20/34.3831213/132.3533817"}}, {"type": "Feature", "geometry": {"type": "Point", "coordinates": [132.3583125, 34.363919]}, "properties": {"id": 12849167176, "feat_type": "node", "quality_categories": "kerb_on_top_of_non_crossing", "issue_ids": "[1]", "osm_url": "https://www.openstreetmap.org/node/12849167176", "josm_url": "http://127.0.0.1:8111/load_object?new_layer=false&objects=n12849167176", "id_url": "https://www.openstreetmap.org/edit?editor=id&node=12849167176#map=20/34.363919/132.3583125"}}, {"type": "Feature", "geometry": {"type": "Point", "coordinates": [132.3548515, 34.370973]}, "properties": {"id": 13308246183, "feat_type": "node", "quality_categories": "kerb_on_top_of_non_crossing", "issue_ids": "[1]", "osm_url": "https://www.openstreetmap.org/node/13308246183", "josm_url": "http://127.0.0.1:8111/load_object?new_layer=false&objects=n13308246183", "id_url": "https://www.openstreetmap.org/edit?editor=id&node=13308246183#map=20/34.370973/132.3548515"}}, {"type": "Feature", "geometry": {"type": "Point", "coordinates": [132.3522394, 34.3716516]}, "properties": {"id": 13308246199, "feat_type": "node", "quality_categories": "kerb_on_top_of_non_crossing", "issue_ids": "[1]", "osm_url": "https://www.openstreetmap.org/node/13308246199", "josm_url": "http://127.0.0.1:8111/load_object?new_layer=false&objects=n13308246199", "id_url": "https://www.openstreetmap.org/edit?editor=id&node=13308246199#map=20/34.3716516/132.3522394"}}, {"type": "Feature", "geometry": {"type": "Point", "coordinates": [132.3560102, 34.3705894]}, "properties": {"id": 13308246214, "feat_type": "node", "quality_categories": "kerb_on_top_of_non_crossing", "issue_ids": "[1]", "osm_url": "https://www.openstreetmap.org/node/13308246214", "josm_url": "http://127.0.0.1:8111/load_object?new_layer=false&objects=n13308246214", "id_url": "https://www.openstreetmap.org/edit?editor=id&node=13308246214#map=20/34.3705894/132.3560102"}}, {"type": "Feature", "geometry": {"type": "Point", "coordinates": [132.3454328, 34.3606842]}, "properties": {"id": 13437798124, "feat_type": "node", "quality_categories": "kerb_on_top_of_non_crossing", "issue_ids": "[1]", "osm_url": "https://www.openstreetmap.org/node/13437798124", "josm_url": "http://127.0.0.1:8111/load_object?new_layer=false&objects=n13437798124", "id_url": "https://www.openstreetmap.org/edit?editor=id&node=13437798124#map=20/34.3606842/132.3454328"}}, {"type": "Feature", "geometry": {"type": "Point", "coordinates": [132.3454268, 34.3606526]}, "properties": {"id": 13437798125, "feat_type": "node", "quality_categories": "kerb_on_top_of_non_crossing", "issue_ids": "[1]", "osm_url": "https://www.openstreetmap.org/node/13437798125", "josm_url": "http://127.0.0.1:8111/load_object?new_layer=false&objects=n13437798125", "id_url": "https://www.openstreetmap.org/edit?editor=id&node=13437798125#map=20/34.3606526/132.3454268"}}, {"type": "Feature", "geometry": {"type": "Point", "coordinates": [132.3454366, 34.3606217]}, "properties": {"id": 13437798126, "feat_type": "node", "quality_categories": "kerb_on_top_of_non_crossing", "issue_ids": "[1]", "osm_url": "https://www.openstreetmap.org/node/13437798126", "josm_url": "http://127.0.0.1:8111/load_object?new_layer=false&objects=n13437798126", "id_url": "https://www.openstreetmap.org/edit?editor=id&node=13437798126#map=20/34.3606217/132.3454366"}}, {"type": "Feature", "geometry": {"type": "Point", "coordinates": [132.3454605, 34.3605966]}, "properties": {"id": 13437798127, "feat_type": "node", "quality_categories": "kerb_on_top_of_non_crossing", "issue_ids": "[1]", "osm_url": "https://www.openstreetmap.org/node/13437798127", "josm_url": "http://127.0.0.1:8111/load_object?new_layer=false&objects=n13437798127", "id_url": "https://www.openstreetmap.org/edit?editor=id&node=13437798127#map=20/34.3605966/132.3454605"}}, {"type": "Feature", "geometry": {"type": "Point", "coordinates": [132.3454945, 34.3605815]}, "properties": {"id": 13437798128, "feat_type": "node", "quality_categories": "kerb_on_top_of_non_crossing", "issue_ids": "[1]", "osm_url": "https://www.openstreetmap.org/node/13437798128", "josm_url": "http://127.0.0.1:8111/load_object?new_layer=false&objects=n13437798128", "id_url": "https://www.openstreetmap.org/edit?editor=id&node=13437798128#map=20/34.3605815/132.3454945"}}, {"type": "Feature", "geometry": {"type": "Point", "coordinates": [132.3455331, 34.3605789]}, "properties": {"id": 13437798129, "feat_type": "node", "quality_categories": "kerb_on_top_of_non_crossing", "issue_ids": "[1]", "osm_url": "https://www.openstreetmap.org/node/13437798129", "josm_url": "http://127.0.0.1:8111/load_object?new_layer=false&objects=n13437798129", "id_url": "https://www.openstreetmap.org/edit?editor=id&node=13437798129#map=20/34.3605789/132.3455331"}}, {"type": "Feature", "geometry": {"type": "Point", "coordinates": [132.2884292, 34.4274009]}, "properties": {"id": 13533562569, "feat_type": "node", "quality_categories": "kerb_on_top_of_non_crossing", "issue_ids": "[1]", "osm_url": "https://www.openstreetmap.org/node/13533562569", "josm_url": "http://127.0.0.1:8111/load_object?new_layer=false&objects=n13533562569", "id_url": "https://www.openstreetmap.org/edit?editor=id&node=13533562569#map=20/34.4274009/132.2884292"}}, {"type": "Feature", "geometry": {"type": "Point", "coordinates": [132.2887795, 34.4292777]}, "properties": {"id": 13533562736, "feat_type": "node", "quality_categories": "kerb_on_top_of_non_crossing", "issue_ids": "[1]", "osm_url": "https://www.openstreetmap.org/node/13533562736", "josm_url": "http://127.0.0.1:8111/load_object?new_layer=false&objects=n13533562736", "id_url": "https://www.openstreetmap.org/edit?editor=id&node=13533562736#map=20/34.4292777/132.2887795"}}, {"type": "Feature", "geometry": {"type": "Point", "coordinates": [132.2882836, 34.4274831]}, "properties": {"id": 13533562794, "feat_type": "node", "quality_categories": "kerb_on_top_of_non_crossing", "issue_ids": "[1]", "osm_url": "https://www.openstreetmap.org/node/13533562794", "josm_url": "http://127.0.0.1:8111/load_object?new_layer=false&objects=n13533562794", "id_url": "https://www.openstreetmap.org/edit?editor=id&node=13533562794#map=20/34.4274831/132.2882836"}}, {"type": "Feature", "geometry": {"type": "Point", "coordinates": [132.29023, 34.4312467]}, "properties": {"id": 13533562801, "feat_type": "node", "quality_categories": "kerb_on_top_of_non_crossing", "issue_ids": "[1]", "osm_url": "https://www.openstreetmap.org/node/13533562801", "josm_url": "http://127.0.0.1:8111/load_object?new_layer=false&objects=n13533562801", "id_url": "https://www.openstreetmap.org/edit?editor=id&node=13533562801#map=20/34.4312467/132.29023"}}, {"type": "Feature", "geometry": {"type": "Point", "coordinates": [132.2903, 34.4325871]}, "properties": {"id": 13533562883, "feat_type": "node", "quality_categories": "kerb_on_top_of_non_crossing", "issue_ids": "[1]", "osm_url": "https://www.openstreetmap.org/node/13533562883", "josm_url": "http://127.0.0.1:8111/load_object?new_layer=false&objects=n13533562883", "id_url": "https://www.openstreetmap.org/edit?editor=id&node=13533562883#map=20/34.4325871/132.2903"}}, {"type": "Feature", "geometry": {"type": "Point", "coordinates": [132.2983339, 34.4370494]}, "properties": {"id": 13533562905, "feat_type": "node", "quality_categories": "kerb_on_top_of_non_crossing", "issue_ids": "[1]", "osm_url": "https://www.openstreetmap.org/node/13533562905", "josm_url": "http://127.0.0.1:8111/load_object?new_layer=false&objects=n13533562905", "id_url": "https://www.openstreetmap.org/edit?editor=id&node=13533562905#map=20/34.4370494/132.2983339"}}, {"type": "Feature", "geometry": {"type": "Point", "coordinates": [132.2981925, 34.4370881]}, "properties": {"id": 13533562906, "feat_type": "node", "quality_categories": "kerb_on_top_of_non_crossing", "issue_ids": "[1]", "osm_url": "https://www.openstreetmap.org/node/13533562906", "josm_url": "http://127.0.0.1:8111/load_object?new_layer=false&objects=n13533562906", "id_url": "https://www.openstreetmap.org/edit?editor=id&node=13533562906#map=20/34.4370881/132.2981925"}}, {"type": "Feature", "geometry": {"type": "Point", "coordinates": [132.2979531, 34.4366904]}, "properties": {"id": 13533562971, "feat_type": "node", "quality_categories": "kerb_on_top_of_non_crossing", "issue_ids": "[1]", "osm_url": "https://www.openstreetmap.org/node/13533562971", "josm_url": "http://127.0.0.1:8111/load_object?new_layer=false&objects=n13533562971", "id_url": "https://www.openstreetmap.org/edit?editor=id&node=13533562971#map=20/34.4366904/132.2979531"}}, {"type": "Feature", "geometry": {"type": "Point", "coordinates": [132.2950641, 34.4373305]}, "properties": {"id": 13533563011, "feat_type": "node", "quality_categories": "kerb_on_top_of_non_crossing", "issue_ids": "[1]", "osm_url": "https://www.openstreetmap.org/node/13533563011", "josm_url": "http://127.0.0.1:8111/load_object?new_layer=false&objects=n13533563011", "id_url": "https://www.openstreetmap.org/edit?editor=id&node=13533563011#map=20/34.4373305/132.2950641"}}, {"type": "Feature", "geometry": {"type": "Point", "coordinates": [132.2963604, 34.4372192]}, "properties": {"id": 13542409681, "feat_type": "node", "quality_categories": "kerb_on_top_of_non_crossing", "issue_ids": "[1]", "osm_url": "https://www.openstreetmap.org/node/13542409681", "josm_url": "http://127.0.0.1:8111/load_object?new_layer=false&objects=n13542409681", "id_url": "https://www.openstreetmap.org/edit?editor=id&node=13542409681#map=20/34.4372192/132.2963604"}}, {"type": "Feature", "geometry": {"type": "Point", "coordinates": [132.2963555, 34.4372095]}, "properties": {"id": 13542409683, "feat_type": "node", "quality_categories": "kerb_on_top_of_non_crossing", "issue_ids": "[1]", "osm_url": "https://www.openstreetmap.org/node/13542409683", "josm_url": "http://127.0.0.1:8111/load_object?new_layer=false&objects=n13542409683", "id_url": "https://www.openstreetmap.org/edit?editor=id&node=13542409683#map=20/34.4372095/132.2963555"}}, {"type": "Feature", "geometry": {"type": "Point", "coordinates": [132.3527694, 34.3848608]}, "properties": {"id": 13565910825, "feat_type": "node", "quality_categories": "kerb_on_top_of_non_crossing", "issue_ids": "[1]", "osm_url": "https://www.openstreetmap.org/node/13565910825", "josm_url": "http://127.0.0.1:8111/load_object?new_layer=false&objects=n13565910825", "id_url": "https://www.openstreetmap.org/edit?editor=id&node=13565910825#map=20/34.3848608/132.3527694"}}, {"type": "Feature", "geometry": {"type": "Point", "coordinates": [132.297803, 34.4364173]}, "properties": {"id": 13572981206, "feat_type": "node", "quality_categories": "kerb_on_top_of_non_crossing", "issue_ids": "[1]", "osm_url": "https://www.openstreetmap.org/node/13572981206", "josm_url": "http://127.0.0.1:8111/load_object?new_layer=false&objects=n13572981206", "id_url": "https://www.openstreetmap.org/edit?editor=id&node=13572981206#map=20/34.4364173/132.297803"}}, {"type": "Feature", "geometry": {"type": "Point", "coordinates": [132.2932507, 34.4320967]}, "properties": {"id": 13607940051, "feat_type": "node", "quality_categories": "kerb_on_top_of_non_crossing", "issue_ids": "[1]", "osm_url": "https://www.openstreetmap.org/node/13607940051", "josm_url": "http://127.0.0.1:8111/load_object?new_layer=false&objects=n13607940051", "id_url": "https://www.openstreetmap.org/edit?editor=id&node=13607940051#map=20/34.4320967/132.2932507"}}, {"type": "Feature", "geometry": {"type": "Point", "coordinates": [132.2932819, 34.4320168]}, "properties": {"id": 13670590480, "feat_type": "node", "quality_categories": "kerb_on_top_of_non_crossing", "issue_ids": "[1]", "osm_url": "https://www.openstreetmap.org/node/13670590480", "josm_url": "http://127.0.0.1:8111/load_object?new_layer=false&objects=n13670590480", "id_url": "https://www.openstreetmap.org/edit?editor=id&node=13670590480#map=20/34.4320168/132.2932819"}}]}