{"type": "FeatureCollection", "features": [{"type": "Feature", "geometry": {"type": "Point", "coordinates": [132.4925767, 34.3941976]}, "properties": {"id": 4285982373, "feat_type": "node", "quality_categories": "kerb_on_top_of_non_crossing, older_than_five_years", "issue_ids": "[0, 1]", "osm_url": "https://www.openstreetmap.org/node/4285982373", "josm_url": "http://127.0.0.1:8111/load_object?new_layer=false&objects=n4285982373", "id_url": "https://www.openstreetmap.org/edit?editor=id&node=4285982373#map=20/34.3941976/132.4925767"}}, {"type": "Feature", "geometry": {"type": "Point", "coordinates": [132.4923561, 34.3942779]}, "properties": {"id": 4285982375, "feat_type": "node", "quality_categories": "older_than_five_years", "issue_ids": "[0]", "osm_url": "https://www.openstreetmap.org/node/4285982375", "josm_url": "http://127.0.0.1:8111/load_object?new_layer=false&objects=n4285982375", "id_url": "https://www.openstreetmap.org/edit?editor=id&node=4285982375#map=20/34.3942779/132.4923561"}}, {"type": "Feature", "geometry": {"type": "Point", "coordinates": [132.4924186, 34.39444]}, "properties": {"id": 4285982381, "feat_type": "node", "quality_categories": "older_than_five_years", "issue_ids": "[0]", "osm_url": "https://www.openstreetmap.org/node/4285982381", "josm_url": "http://127.0.0.1:8111/load_object?new_layer=false&objects=n4285982381", "id_url": "https://www.openstreetmap.org/edit?editor=id&node=4285982381#map=20/34.39444/132.4924186"}}, {"type": "Feature", "geometry": {"type": "Point", "coordinates": [132.492547, 34.3944784]}, "properties": {"id": 4285982386, "feat_type": "node", "quality_categories": "older_than_five_years", "issue_ids": "[0]", "osm_url": "https://www.openstreetmap.org/node/4285982386", "josm_url": "http://127.0.0.1:8111/load_object?new_layer=false&objects=n4285982386", "id_url": "https://www.openstreetmap.org/edit?editor=id&node=4285982386#map=20/34.3944784/132.492547"}}, {"type": "Feature", "geometry": {"type": "Point", "coordinates": [132.4912139, 34.394527]}, "properties": {"id": 4285982691, "feat_type": "node", "quality_categories": "older_than_five_years", "issue_ids": "[0]", "osm_url": "https://www.openstreetmap.org/node/4285982691", "josm_url": "http://127.0.0.1:8111/load_object?new_layer=false&objects=n4285982691", "id_url": "https://www.openstreetmap.org/edit?editor=id&node=4285982691#map=20/34.394527/132.4912139"}}, {"type": "Feature", "geometry": {"type": "Point", "coordinates": [132.4911502, 34.3945401]}, "properties": {"id": 4285982696, "feat_type": "node", "quality_categories": "older_than_five_years", "issue_ids": "[0]", "osm_url": "https://www.openstreetmap.org/node/4285982696", "josm_url": "http://127.0.0.1:8111/load_object?new_layer=false&objects=n4285982696", "id_url": "https://www.openstreetmap.org/edit?editor=id&node=4285982696#map=20/34.3945401/132.4911502"}}, {"type": "Feature", "geometry": {"type": "Point", "coordinates": [132.4912554, 34.3945412]}, "properties": {"id": 4285982697, "feat_type": "node", "quality_categories": "older_than_five_years", "issue_ids": "[0]", "osm_url": "https://www.openstreetmap.org/node/4285982697", "josm_url": "http://127.0.0.1:8111/load_object?new_layer=false&objects=n4285982697", "id_url": "https://www.openstreetmap.org/edit?editor=id&node=4285982697#map=20/34.3945412/132.4912554"}}, {"type": "Feature", "geometry": {"type": "Point", "coordinates": [132.491091, 34.3945734]}, "properties": {"id": 4285982699, "feat_type": "node", "quality_categories": "older_than_five_years", "issue_ids": "[0]", "osm_url": "https://www.openstreetmap.org/node/4285982699", "josm_url": "http://127.0.0.1:8111/load_object?new_layer=false&objects=n4285982699", "id_url": "https://www.openstreetmap.org/edit?editor=id&node=4285982699#map=20/34.3945734/132.491091"}}, {"type": "Feature", "geometry": {"type": "Point", "coordinates": [132.4913035, 34.3946962]}, "properties": {"id": 4285982706, "feat_type": "node", "quality_categories": "older_than_five_years", "issue_ids": "[0]", "osm_url": "https://www.openstreetmap.org/node/4285982706", "josm_url": "http://127.0.0.1:8111/load_object?new_layer=false&objects=n4285982706", "id_url": "https://www.openstreetmap.org/edit?editor=id&node=4285982706#map=20/34.3946962/132.4913035"}}, {"type": "Feature", "geometry": {"type": "Point", "coordinates": [132.4911414, 34.3947279]}, "properties": {"id": 4285982708, "feat_type": "node", "quality_categories": "older_than_five_years", "issue_ids": "[0]", "osm_url": "https://www.openstreetmap.org/node/4285982708", "josm_url": "http://127.0.0.1:8111/load_object?new_layer=false&objects=n4285982708", "id_url": "https://www.openstreetmap.org/edit?editor=id&node=4285982708#map=20/34.3947279/132.4911414"}}, {"type": "Feature", "geometry": {"type": "Point", "coordinates": [132.4912551, 34.3947303]}, "properties": {"id": 4285982709, "feat_type": "node", "quality_categories": "older_than_five_years", "issue_ids": "[0]", "osm_url": "https://www.openstreetmap.org/node/4285982709", "josm_url": "http://127.0.0.1:8111/load_object?new_layer=false&objects=n4285982709", "id_url": "https://www.openstreetmap.org/edit?editor=id&node=4285982709#map=20/34.3947303/132.4912551"}}, {"type": "Feature", "geometry": {"type": "Point", "coordinates": [132.491184, 34.3947448]}, "properties": {"id": 4285982713, "feat_type": "node", "quality_categories": "older_than_five_years", "issue_ids": "[0]", "osm_url": "https://www.openstreetmap.org/node/4285982713", "josm_url": "http://127.0.0.1:8111/load_object?new_layer=false&objects=n4285982713", "id_url": "https://www.openstreetmap.org/edit?editor=id&node=4285982713#map=20/34.3947448/132.491184"}}, {"type": "Feature", "geometry": {"type": "Point", "coordinates": [132.4899877, 34.3947613]}, "properties": {"id": 4285982716, "feat_type": "node", "quality_categories": "older_than_five_years", "issue_ids": "[0]", "osm_url": "https://www.openstreetmap.org/node/4285982716", "josm_url": "http://127.0.0.1:8111/load_object?new_layer=false&objects=n4285982716", "id_url": "https://www.openstreetmap.org/edit?editor=id&node=4285982716#map=20/34.3947613/132.4899877"}}, {"type": "Feature", "geometry": {"type": "Point", "coordinates": [132.4900503, 34.3947729]}, "properties": {"id": 4285982719, "feat_type": "node", "quality_categories": "older_than_five_years", "issue_ids": "[0]", "osm_url": "https://www.openstreetmap.org/node/4285982719", "josm_url": "http://127.0.0.1:8111/load_object?new_layer=false&objects=n4285982719", "id_url": "https://www.openstreetmap.org/edit?editor=id&node=4285982719#map=20/34.3947729/132.4900503"}}, {"type": "Feature", "geometry": {"type": "Point", "coordinates": [132.489918, 34.3947746]}, "properties": {"id": 4285982720, "feat_type": "node", "quality_categories": "older_than_five_years", "issue_ids": "[0]", "osm_url": "https://www.openstreetmap.org/node/4285982720", "josm_url": "http://127.0.0.1:8111/load_object?new_layer=false&objects=n4285982720", "id_url": "https://www.openstreetmap.org/edit?editor=id&node=4285982720#map=20/34.3947746/132.489918"}}, {"type": "Feature", "geometry": {"type": "Point", "coordinates": [132.4898766, 34.3948109]}, "properties": {"id": 4285982725, "feat_type": "node", "quality_categories": "older_than_five_years", "issue_ids": "[0]", "osm_url": "https://www.openstreetmap.org/node/4285982725", "josm_url": "http://127.0.0.1:8111/load_object?new_layer=false&objects=n4285982725", "id_url": "https://www.openstreetmap.org/edit?editor=id&node=4285982725#map=20/34.3948109/132.4898766"}}, {"type": "Feature", "geometry": {"type": "Point", "coordinates": [132.4900916, 34.3949301]}, "properties": {"id": 4285982730, "feat_type": "node", "quality_categories": "older_than_five_years", "issue_ids": "[0]", "osm_url": "https://www.openstreetmap.org/node/4285982730", "josm_url": "http://127.0.0.1:8111/load_object?new_layer=false&objects=n4285982730", "id_url": "https://www.openstreetmap.org/edit?editor=id&node=4285982730#map=20/34.3949301/132.4900916"}}, {"type": "Feature", "geometry": {"type": "Point", "coordinates": [132.489919, 34.3949555]}, "properties": {"id": 4285982733, "feat_type": "node", "quality_categories": "older_than_five_years", "issue_ids": "[0]", "osm_url": "https://www.openstreetmap.org/node/4285982733", "josm_url": "http://127.0.0.1:8111/load_object?new_layer=false&objects=n4285982733", "id_url": "https://www.openstreetmap.org/edit?editor=id&node=4285982733#map=20/34.3949555/132.489919"}}, {"type": "Feature", "geometry": {"type": "Point", "coordinates": [132.4900343, 34.3949655]}, "properties": {"id": 4285982735, "feat_type": "node", "quality_categories": "older_than_five_years", "issue_ids": "[0]", "osm_url": "https://www.openstreetmap.org/node/4285982735", "josm_url": "http://127.0.0.1:8111/load_object?new_layer=false&objects=n4285982735", "id_url": "https://www.openstreetmap.org/edit?editor=id&node=4285982735#map=20/34.3949655/132.4900343"}}, {"type": "Feature", "geometry": {"type": "Point", "coordinates": [132.4899736, 34.3949758]}, "properties": {"id": 4285982736, "feat_type": "node", "quality_categories": "older_than_five_years", "issue_ids": "[0]", "osm_url": "https://www.openstreetmap.org/node/4285982736", "josm_url": "http://127.0.0.1:8111/load_object?new_layer=false&objects=n4285982736", "id_url": "https://www.openstreetmap.org/edit?editor=id&node=4285982736#map=20/34.3949758/132.4899736"}}, {"type": "Feature", "geometry": {"type": "Point", "coordinates": [132.4887729, 34.3949978]}, "properties": {"id": 4285982740, "feat_type": "node", "quality_categories": "older_than_five_years", "issue_ids": "[0]", "osm_url": "https://www.openstreetmap.org/node/4285982740", "josm_url": "http://127.0.0.1:8111/load_object?new_layer=false&objects=n4285982740", "id_url": "https://www.openstreetmap.org/edit?editor=id&node=4285982740#map=20/34.3949978/132.4887729"}}, {"type": "Feature", "geometry": {"type": "Point", "coordinates": [132.4887057, 34.3950109]}, "properties": {"id": 4285982742, "feat_type": "node", "quality_categories": "older_than_five_years", "issue_ids": "[0]", "osm_url": "https://www.openstreetmap.org/node/4285982742", "josm_url": "http://127.0.0.1:8111/load_object?new_layer=false&objects=n4285982742", "id_url": "https://www.openstreetmap.org/edit?editor=id&node=4285982742#map=20/34.3950109/132.4887057"}}, {"type": "Feature", "geometry": {"type": "Point", "coordinates": [132.4888227, 34.3950145]}, "properties": {"id": 4285982743, "feat_type": "node", "quality_categories": "older_than_five_years", "issue_ids": "[0]", "osm_url": "https://www.openstreetmap.org/node/4285982743", "josm_url": "http://127.0.0.1:8111/load_object?new_layer=false&objects=n4285982743", "id_url": "https://www.openstreetmap.org/edit?editor=id&node=4285982743#map=20/34.3950145/132.4888227"}}, {"type": "Feature", "geometry": {"type": "Point", "coordinates": [132.4886636, 34.3950451]}, "properties": {"id": 4285982746, "feat_type": "node", "quality_categories": "older_than_five_years", "issue_ids": "[0]", "osm_url": "https://www.openstreetmap.org/node/4285982746", "josm_url": "http://127.0.0.1:8111/load_object?new_layer=false&objects=n4285982746", "id_url": "https://www.openstreetmap.org/edit?editor=id&node=4285982746#map=20/34.3950451/132.4886636"}}, {"type": "Feature", "geometry": {"type": "Point", "coordinates": [132.4875841, 34.3952288]}, "properties": {"id": 4285982763, "feat_type": "node", "quality_categories": "older_than_five_years", "issue_ids": "[0]", "osm_url": "https://www.openstreetmap.org/node/4285982763", "josm_url": "http://127.0.0.1:8111/load_object?new_layer=false&objects=n4285982763", "id_url": "https://www.openstreetmap.org/edit?editor=id&node=4285982763#map=20/34.3952288/132.4875841"}}, {"type": "Feature", "geometry": {"type": "Point", "coordinates": [132.4875309, 34.3952392]}, "properties": {"id": 4285982766, "feat_type": "node", "quality_categories": "older_than_five_years", "issue_ids": "[0]", "osm_url": "https://www.openstreetmap.org/node/4285982766", "josm_url": "http://127.0.0.1:8111/load_object?new_layer=false&objects=n4285982766", "id_url": "https://www.openstreetmap.org/edit?editor=id&node=4285982766#map=20/34.3952392/132.4875309"}}, {"type": "Feature", "geometry": {"type": "Point", "coordinates": [132.4876234, 34.3952419]}, "properties": {"id": 4285982767, "feat_type": "node", "quality_categories": "older_than_five_years", "issue_ids": "[0]", "osm_url": "https://www.openstreetmap.org/node/4285982767", "josm_url": "http://127.0.0.1:8111/load_object?new_layer=false&objects=n4285982767", "id_url": "https://www.openstreetmap.org/edit?editor=id&node=4285982767#map=20/34.3952419/132.4876234"}}, {"type": "Feature", "geometry": {"type": "Point", "coordinates": [132.4876675, 34.3953939]}, "properties": {"id": 4285982774, "feat_type": "node", "quality_categories": "older_than_five_years", "issue_ids": "[0]", "osm_url": "https://www.openstreetmap.org/node/4285982774", "josm_url": "http://127.0.0.1:8111/load_object?new_layer=false&objects=n4285982774", "id_url": "https://www.openstreetmap.org/edit?editor=id&node=4285982774#map=20/34.3953939/132.4876675"}}, {"type": "Feature", "geometry": {"type": "Point", "coordinates": [132.487674, 34.3954164]}, "properties": {"id": 4285982775, "feat_type": "node", "quality_categories": "older_than_five_years", "issue_ids": "[0]", "osm_url": "https://www.openstreetmap.org/node/4285982775", "josm_url": "http://127.0.0.1:8111/load_object?new_layer=false&objects=n4285982775", "id_url": "https://www.openstreetmap.org/edit?editor=id&node=4285982775#map=20/34.3954164/132.487674"}}, {"type": "Feature", "geometry": {"type": "Point", "coordinates": [132.492556, 34.3944566]}, "properties": {"id": 4285998259, "feat_type": "node", "quality_categories": "older_than_five_years", "issue_ids": "[0]", "osm_url": "https://www.openstreetmap.org/node/4285998259", "josm_url": "http://127.0.0.1:8111/load_object?new_layer=false&objects=n4285998259", "id_url": "https://www.openstreetmap.org/edit?editor=id&node=4285998259#map=20/34.3944566/132.492556"}}, {"type": "Feature", "geometry": {"type": "Point", "coordinates": [132.4737417, 34.4602884]}, "properties": {"id": 7468609446, "feat_type": "node", "quality_categories": "kerb_on_top_of_non_crossing, older_than_five_years", "issue_ids": "[2, 1]", "osm_url": "https://www.openstreetmap.org/node/7468609446", "josm_url": "http://127.0.0.1:8111/load_object?new_layer=false&objects=n7468609446", "id_url": "https://www.openstreetmap.org/edit?editor=id&node=7468609446#map=20/34.4602884/132.4737417"}}, {"type": "Feature", "geometry": {"type": "Point", "coordinates": [132.4667992, 34.4585361]}, "properties": {"id": 7502200182, "feat_type": "node", "quality_categories": "kerb_on_top_of_non_crossing, older_than_five_years", "issue_ids": "[3, 1]", "osm_url": "https://www.openstreetmap.org/node/7502200182", "josm_url": "http://127.0.0.1:8111/load_object?new_layer=false&objects=n7502200182", "id_url": "https://www.openstreetmap.org/edit?editor=id&node=7502200182#map=20/34.4585361/132.4667992"}}, {"type": "Feature", "geometry": {"type": "Point", "coordinates": [132.4926144, 34.3945078]}, "properties": {"id": 9122659796, "feat_type": "node", "quality_categories": "older_than_five_years, wrong_mispelled_or_unlisted_values", "issue_ids": "[4, 0]", "osm_url": "https://www.openstreetmap.org/node/9122659796", "josm_url": "http://127.0.0.1:8111/load_object?new_layer=false&objects=n9122659796", "id_url": "https://www.openstreetmap.org/edit?editor=id&node=9122659796#map=20/34.3945078/132.4926144"}}, {"type": "Feature", "geometry": {"type": "Point", "coordinates": [132.4928186, 34.3945529]}, "properties": {"id": 9122659799, "feat_type": "node", "quality_categories": "older_than_five_years", "issue_ids": "[0]", "osm_url": "https://www.openstreetmap.org/node/9122659799", "josm_url": "http://127.0.0.1:8111/load_object?new_layer=false&objects=n9122659799", "id_url": "https://www.openstreetmap.org/edit?editor=id&node=9122659799#map=20/34.3945529/132.4928186"}}, {"type": "Feature", "geometry": {"type": "Point", "coordinates": [132.492899, 34.3945497]}, "properties": {"id": 9122659811, "feat_type": "node", "quality_categories": "older_than_five_years", "issue_ids": "[0]", "osm_url": "https://www.openstreetmap.org/node/9122659811", "josm_url": "http://127.0.0.1:8111/load_object?new_layer=false&objects=n9122659811", "id_url": "https://www.openstreetmap.org/edit?editor=id&node=9122659811#map=20/34.3945497/132.492899"}}]}