{"type": "FeatureCollection", "features": [{"type": "Feature", "geometry": {"type": "Point", "coordinates": [132.4730112, 34.3910187]}, "properties": {"id": 1525967066, "feat_type": "node", "quality_categories": "disjointed_geometries, improper_keys, uncanny_keys", "issue_ids": "[0, 1, 2]", "osm_url": "https://www.openstreetmap.org/node/1525967066", "josm_url": "http://127.0.0.1:8111/load_object?new_layer=false&objects=n1525967066", "id_url": "https://www.openstreetmap.org/edit?editor=id&node=1525967066#map=20/34.3910187/132.4730112"}}, {"type": "Feature", "geometry": {"type": "Point", "coordinates": [132.3490881, 34.3634698]}, "properties": {"id": 4427781225, "feat_type": "node", "quality_categories": "improper_keys, uncanny_keys", "issue_ids": "[0, 1]", "osm_url": "https://www.openstreetmap.org/node/4427781225", "josm_url": "http://127.0.0.1:8111/load_object?new_layer=false&objects=n4427781225", "id_url": "https://www.openstreetmap.org/edit?editor=id&node=4427781225#map=20/34.3634698/132.3490881"}}, {"type": "Feature", "geometry": {"type": "Point", "coordinates": [132.4730188, 34.3911037]}, "properties": {"id": 5817990857, "feat_type": "node", "quality_categories": "disjointed_geometries, improper_keys, uncanny_keys", "issue_ids": "[0, 1, 2]", "osm_url": "https://www.openstreetmap.org/node/5817990857", "josm_url": "http://127.0.0.1:8111/load_object?new_layer=false&objects=n5817990857", "id_url": "https://www.openstreetmap.org/edit?editor=id&node=5817990857#map=20/34.3911037/132.4730188"}}, {"type": "Feature", "geometry": {"type": "Point", "coordinates": [132.4731359, 34.3909968]}, "properties": {"id": 5817990858, "feat_type": "node", "quality_categories": "disjointed_geometries, improper_keys, uncanny_keys", "issue_ids": "[0, 1, 2]", "osm_url": "https://www.openstreetmap.org/node/5817990858", "josm_url": "http://127.0.0.1:8111/load_object?new_layer=false&objects=n5817990858", "id_url": "https://www.openstreetmap.org/edit?editor=id&node=5817990858#map=20/34.3909968/132.4731359"}}]}