{"type": "FeatureCollection", "features": [{"type": "Feature", "geometry": {"type": "Point", "coordinates": [132.4606622, 34.3960363]}, "properties": {"id": 1388356254, "feat_type": "node", "quality_categories": "wrong_mispelled_or_unlisted_values", "issue_ids": "[0]", "osm_url": "https://www.openstreetmap.org/node/1388356254", "josm_url": "http://127.0.0.1:8111/load_object?new_layer=false&objects=n1388356254", "id_url": "https://www.openstreetmap.org/edit?editor=id&node=1388356254#map=20/34.3960363/132.4606622"}}, {"type": "Feature", "geometry": {"type": "Point", "coordinates": [132.4643101, 34.3742287]}, "properties": {"id": 1400605038, "feat_type": "node", "quality_categories": "wrong_mispelled_or_unlisted_values", "issue_ids": "[1]", "osm_url": "https://www.openstreetmap.org/node/1400605038", "josm_url": "http://127.0.0.1:8111/load_object?new_layer=false&objects=n1400605038", "id_url": "https://www.openstreetmap.org/edit?editor=id&node=1400605038#map=20/34.3742287/132.4643101"}}, {"type": "Feature", "geometry": {"type": "Point", "coordinates": [132.4647358, 34.3742742]}, "properties": {"id": 1400605053, "feat_type": "node", "quality_categories": "wrong_mispelled_or_unlisted_values", "issue_ids": "[1]", "osm_url": "https://www.openstreetmap.org/node/1400605053", "josm_url": "http://127.0.0.1:8111/load_object?new_layer=false&objects=n1400605053", "id_url": "https://www.openstreetmap.org/edit?editor=id&node=1400605053#map=20/34.3742742/132.4647358"}}, {"type": "Feature", "geometry": {"type": "Point", "coordinates": [132.464815, 34.3741114]}, "properties": {"id": 6121263449, "feat_type": "node", "quality_categories": "wrong_mispelled_or_unlisted_values", "issue_ids": "[1]", "osm_url": "https://www.openstreetmap.org/node/6121263449", "josm_url": "http://127.0.0.1:8111/load_object?new_layer=false&objects=n6121263449", "id_url": "https://www.openstreetmap.org/edit?editor=id&node=6121263449#map=20/34.3741114/132.464815"}}, {"type": "Feature", "geometry": {"type": "Point", "coordinates": [132.4926144, 34.3945078]}, "properties": {"id": 9122659796, "feat_type": "node", "quality_categories": "wrong_mispelled_or_unlisted_values", "issue_ids": "[0]", "osm_url": "https://www.openstreetmap.org/node/9122659796", "josm_url": "http://127.0.0.1:8111/load_object?new_layer=false&objects=n9122659796", "id_url": "https://www.openstreetmap.org/edit?editor=id&node=9122659796#map=20/34.3945078/132.4926144"}}, {"type": "Feature", "geometry": {"type": "Point", "coordinates": [132.2967627, 34.4306399]}, "properties": {"id": 13607952692, "feat_type": "node", "quality_categories": "wrong_mispelled_or_unlisted_values", "issue_ids": "[2]", "osm_url": "https://www.openstreetmap.org/node/13607952692", "josm_url": "http://127.0.0.1:8111/load_object?new_layer=false&objects=n13607952692", "id_url": "https://www.openstreetmap.org/edit?editor=id&node=13607952692#map=20/34.4306399/132.2967627"}}]}